"","FHRSID","LocalAuthorityBusinessID","BusinessName","BusinessType","BusinessTypeID","AddressLine1","AddressLine2","AddressLine3","AddressLine4","PostCode","RatingValue","RatingKey","RightToReply","RatingDate","LocalAuthorityCode","LocalAuthorityName","LocalAuthorityWebSite","LocalAuthorityEmailAddress","Scores","SchemeType","NewRatingPending","Geocode","Distance"
"1","1004989","77548","Ice Cream","Mobile caterer","7846","","","","","NG8 ","5","fhrs_5_en-gb","","24 July 2018","899","Nottingham City","http://www.nottinghamcity.gov.uk/foodsafety","food.enforcement@nottinghamcity.gov.uk","000","FHRS","false","",""
"2","965153","709537","Ice Cream","Mobile caterer","7846","","","","","SG8 ","5","fhrs_5_en-gb","","28 February 2019","159","North Hertfordshire","http://www.north-herts.gov.uk","env.health@north-herts.gov.uk","000","FHRS","false","",""
"3","292090","747068","Ice Cream","Mobile caterer","7846","","","","","BN16","5","fhrs_5_en-gb","","15 April 2019","324","Arun","http://www.arun.gov.uk","food.safety@arun.gov.uk","050","FHRS","false","",""
"4","713619","PI/000017108/SW","I Scream Ice Cream","Mobile caterer","7846","","","","","ME12","5","fhrs_5_en-gb","","20 June 2017","189","Swale","http://www.swale.gov.uk","EHAdmin@MidKent.gov.uk","000","FHRS","false","",""
"5","973501","99999","Scream for Ice Cream","Mobile caterer","7846","","","","","NR8 ","5","fhrs_5_en-gb","","24 May 2017","228","Broadland","http://www.broadland.gov.uk","foodandsafety@broadland.gov.uk","555","FHRS","false","",""
"6","908433","16/00064/COMM","786 Soft Ice Cream","Mobile caterer","7846","14 Beaufort Road Maybury Woking Surrey","","","","GU22 8BY","5","fhrs_5_en-gb","","27 June 2018","315","Woking","http://www.woking.gov.uk","emma.bourne@woking.gov.uk","555","FHRS","false","-0.53669351.32303",""
"7","1040836","47056","Abbey Ice Cream","Mobile caterer","7846","West Dockber Farm","Sawley Old Brow","Sawley","Clitheroe","BB7 4LF","5","fhrs_5_en-gb","","31 May 2018","203","Ribble Valley","http://www.ribblevalley.gov.uk","environmental.health@ribblevalley.gov.uk","000","FHRS","false","-2.33845553.91629",""
"8","898251","PI/000161785","Ace Ice Cream","Mobile caterer","7846","","","","","TN36","5","fhrs_5_en-gb","","06 August 2018","106","Rother","http://www.rother.gov.uk","envhealth@rother.gov.uk","555","FHRS","false","",""
"9","914724","16/00104/COM","Adam Soft Ice Cream","Mobile caterer","7846","","","","","OX4 ","5","fhrs_5_en-gb","","28 August 2018","269","Oxford City","http://www.oxford.gov.uk","foodsafety@oxford.gov.uk","000","FHRS","false","",""
"10","1048723","900760","AJ's Ice Cream","Mobile caterer","7846","","","","","BT71","5","fhrs_5_en-gb","","30 May 2018","811","Mid Ulster","http://www.midulstercouncil.org","environmentalhealth@midulstercouncil.org","505","FHRS","false","",""
"11","688266","0000052/FOOD","Alan's Ice Cream","Mobile caterer","7846","50 Peak Avenue Riddings Alfreton Derbyshire","","","","DE55 4AR","5","fhrs_5_en-gb","","22 June 2017","062","Amber Valley","http://www.ambervalley.gov.uk","envhealth@ambervalley.gov.uk","555","FHRS","false","-1.3759853.07177",""
"12","118615","47963","Alex Ice Cream","Mobile caterer","7846","","","","","SA4 ","5","fhrs_5_en-gb","","14 February 2019","568","Swansea","http://www.swansea.gov.uk","FoodandSafety@swansea.gov.uk","005","FHRS","false","",""
"13","1071917","EHFDI/06287/18","Ambridges Ice Cream","Mobile caterer","7846","8-9 The Terrace","Spilsby","","","PE23 5JR","5","fhrs_5_en-gb","","09 August 2018","220","East Lindsey","http://www.e-lindsey.gov.uk/","customerservices@e-lindsey.gov.uk","555","FHRS","false","0.095893853.17357",""
"14","1077107","127575","An Ice Cream Tricycle","Mobile caterer","7846","","","","","DN9 ","5","fhrs_5_en-gb","","30 August 2018","864","North Lincolnshire","http://www.northlincs.gov.uk/environment/environmentalhealth/food/food-safety/","food.safety@northlincs.gov.uk","000","FHRS","false","",""
"15","161352","PI/000001351","Angie's Ice Cream","Mobile caterer","7846","32 Racecourse Road","East Ayton","Scarborough","North Yorkshire","YO13 9HP","5","fhrs_5_en-gb","","14 November 2018","255","Scarborough","http://www.scarborough.gov.uk/home/business-licensing-and-grants/food-hygiene","","050","FHRS","false","-0.47601654.2525139",""
"16","500291","PI/000014665","Antonio's Ice Cream","Mobile caterer","7846","","","","","DY2 ","5","fhrs_5_en-gb","","07 November 2017","409","Dudley","http://www.dudley.gov.uk","Food.DUE@dudley.gov.uk","005","FHRS","false","",""
"17","970556","745999","Antonio's Ice Cream Delights","Mobile caterer","7846","","","","","CF14","5","fhrs_5_en-gb","","30 June 2015","556","Cardiff","https://www.srs.wales/en/Environmental-Health/Food-Hygiene-Standards/Food.aspx","FoodSafetyCardiff-SRSWales@valeofglamorgan.gov.uk","555","FHRS","false","",""
"18","889672","16/02885/MIXED","Apps Ice Cream","Mobile caterer","7846","","","","","TQ14","5","fhrs_5_en-gb","","13 June 2016","078","Teignbridge","http://www.teignbridge.gov.uk/fhrs","fhrs@teignbridge.gov.uk","005","FHRS","false","",""
"19","699965","48177","Avant Ice Cream Tricycles","Mobile caterer","7846","","","","","DY3 ","5","fhrs_5_en-gb","","03 September 2014","291","South Staffordshire","http://www.sstaffs.gov.uk","env.commercial@sstaffs.gov.uk","500","FHRS","false","",""
"20","501914","PI/000131482","Barnabys Ice Cream","Mobile caterer","7846","","","","","DY5 ","5","fhrs_5_en-gb","","20 July 2011","409","Dudley","http://www.dudley.gov.uk","Food.DUE@dudley.gov.uk","005","FHRS","false","",""
"21","995855","4176","BEAMINSTER ICE CREAM","Mobile caterer","7846","","","","","DT8 ","5","fhrs_5_en-gb","","13 June 2018","085","Dorset","https://www.dorsetcouncil.gov.uk/","envhealthteamb@dorsetcouncil.gov.uk","555","FHRS","false","",""
"22","1130621","770038","Beefy's Ice cream","Mobile caterer","7846","","","","","CF31","5","fhrs_5_en-gb","","07 June 2019","553","Bridgend","http://www.bridgend.gov.uk/","publicprotection@bridgend.gov.uk","005","FHRS","false","",""
"23","963973","EHFDI/01803/17","Bensley'S Homemade Ice Cream","Mobile caterer","7846","Laburnum House","Main Road","Grainthorpe Lincolnshire","","LN11 7JS","5","fhrs_5_en-gb","","20 November 2018","220","East Lindsey","http://www.e-lindsey.gov.uk/","customerservices@e-lindsey.gov.uk","050","FHRS","false","0.08311753.44897",""
"24","1149147","33711","Bertie's Ice Cream Sales","Mobile caterer","7846","Burnham On Sea Holiday Village","Marine Drive","Burnham On Sea","","TA8 1LA","5","fhrs_5_en-gb","","23 May 2019","282","Sedgemoor","http://www.sedgemoor.gov.uk","environmental.services@sedgemoor.gov.uk","000","FHRS","false","-2.99744751.2285538",""
"25","1152918","19/00071/COM","Berties Ice Cream Van","Mobile caterer","7846","Devon Cliffs Holiday Centre","Sandy Bay","Exmouth","","EX8 5BT","5","fhrs_5_en-gb","","17 June 2019","072","East Devon","http://www.eastdevon.gov.uk","environmentalhealth@eastdevon.gov.uk","555","FHRS","false","-3.36662450.61496",""
"26","1154075","PI/000076890","Berties Ice Cream Van","Mobile caterer","7846","Combe Haven Holiday Park","Harley Shute Road","St Leonards-on-sea","East Sussex","TN38 8BZ","5","fhrs_5_en-gb","","18 July 2019","103","Hastings","http://www.hastings.gov.uk","fhrs@hastings.gov.uk","000","FHRS","false","0.5268150.85448",""
"27","894239","174180","Beverley Ice Cream","Mobile caterer","7846","","","","","HU13","5","fhrs_5_en-gb","","13 June 2016","863","East Riding of Yorkshire","http://www.eastriding.gov.uk","food.services@eastriding.gov.uk","055","FHRS","false","",""
"28","1071915","EHFDI/05741/18","Bibbys Ice Cream Parlour","Mobile caterer","7846","Bibbys Ice Cream Parlour","Quebec Road","Mablethorpe","","LN12 1LU","5","fhrs_5_en-gb","","02 August 2018","220","East Lindsey","http://www.e-lindsey.gov.uk/","customerservices@e-lindsey.gov.uk","005","FHRS","false","0.26112953.34487",""
"29","62011","136668","Big Al's Ice Cream","Mobile caterer","7846","","","","","SA4 ","5","fhrs_5_en-gb","","14 June 2019","568","Swansea","http://www.swansea.gov.uk","FoodandSafety@swansea.gov.uk","000","FHRS","false","",""
"30","495212","47828","Big Chief Ice Cream","Mobile caterer","7846","","","","","BH9 ","5","fhrs_5_en-gb","","05 January 2018","872","Bournemouth, Christchurch and Poole","http://www.bournemouth.gov.uk","foodandhealthandsafety@bournemouth.gov.uk","555","FHRS","false","",""
"31","520427","52975","Blundi Ice Cream Van","Mobile caterer","7846","","","","","UB4 ","5","fhrs_5_en-gb","","21 January 2019","517","Hillingdon","http://www.hillingdon.gov.uk/foodsafety","environmentalhealthcp@hillingdon.gov.uk","555","FHRS","false","",""
"32","77669","182883","Bongo's Ice Cream Van","Mobile caterer","7846","","","","","CF45","5","fhrs_5_en-gb","","30 October 2014","567","Rhondda Cynon Taf","http://www.rhondda-cynon-taf.gov.uk/en/business/healthandsafety/foodbusiness-foodsafetyinspections/foodbusiness-foodsafetyinspection.aspx","food.healthandsafety@rctcbc.gov.uk","055","FHRS","false","",""
"33","897127","PI/000066314","Bournville Ice Cream Company","Mobile caterer","7846","","","","","B29 ","5","fhrs_5_en-gb","","11 July 2016","402","Birmingham","http://www.birmingham.gov.uk/environmental-health","nick.lowe@birmingham.gov.uk","000","FHRS","false","",""
"34","1035050","PI/000096311","Brums Ice Cream Cart","Mobile caterer","7846","","","","","KT8 ","5","fhrs_5_en-gb","","16 February 2018","305","Elmbridge","http://www.elmbridge.gov.uk/food","envhealth@elmbridge.gov.uk","005","FHRS","false","",""
"35","687982","100090372607","Candys Ice Cream","Mobile caterer","7846","","","","","SS8 ","5","fhrs_5_en-gb","","26 April 2019","112","Castle Point","http://www.castlepoint.gov.uk","environmentalhealth@castlepoint.gov.uk","500","FHRS","false","",""
"36","1112529","19/00079/FOOD","Carls Vintage Ice Cream","Mobile caterer","7846","","","","","PO20","5","fhrs_5_en-gb","","13 May 2019","325","Chichester","http://www.chichester.gov.uk","environmentalhealth@chichester.gov.uk","000","FHRS","false","",""
"37","962062","17/00043/COMM","Castle Ice Cream","Mobile caterer","7846","","","","","NG24","5","fhrs_5_en-gb","","06 April 2017","264","Newark and Sherwood","http://www.newark-sherwooddc.gov.uk/","environmental.health@nsdc.info","000","FHRS","false","",""
"38","544698","64022","CHARLIE JAYNE ICE CREAM","Mobile caterer","7846","","","","","ST5 ","5","fhrs_5_en-gb","","29 April 2013","290","Newcastle-Under-Lyme","http://www.newcastle-staffs.gov.uk/","foodandsafety@newcastle-staffs.gov.uk","000","FHRS","false","",""
"39","782671","PI/000160764","Charlotte's Ice Cream","Mobile caterer","7846","","","","","CB23","5","fhrs_5_en-gb","","02 September 2015","032","South Cambridgeshire","http://www.scambs.gov.uk/","env.health@scambs.gov.uk","555","FHRS","false","",""
"40","1070473","80028","Christchurch Wedding Ice Cream","Mobile caterer","7846","","","","","BH23","5","fhrs_5_en-gb","","25 March 2019","872","Bournemouth, Christchurch and Poole","http://www.bournemouth.gov.uk","foodandhealthandsafety@bournemouth.gov.uk","000","FHRS","false","",""
"41","1087157","100579","Chrisâ€™s Soft Ice Cream","Mobile caterer","7846","","","","","SL2 ","5","fhrs_5_en-gb","","15 October 2018","885","Slough","http://www.slough.gov.uk","foodandsafety@slough.gov.uk","505","FHRS","false","",""
"42","1049305","515517","Cresci's ice cream","Mobile caterer","7846","","41 Graig Road","Gwaun Cae Gurwen","Neath Port Talbot","SA18 1EH","5","fhrs_5_en-gb","","17 April 2018","563","Neath Port Talbot","http://www.npt.gov.uk","ehd@npt.gov.uk","000","FHRS","false","-3.88667351.7945251",""
"43","810412","PI/000073544","Dairyland Ice Cream","Mobile caterer","7846","","","","","NR21","5","fhrs_5_en-gb","","21 May 2012","231","North Norfolk","http://www.northnorfolk.gov.uk","commercial@north-norfolk.gov.uk","505","FHRS","false","",""
"44","704879","CP2503","Dave's Delicious Ice Cream","Mobile caterer","7846","","","","","GL10","5","fhrs_5_en-gb","","21 July 2014","128","Stroud","http://www.stroud.gov.uk","environmental.health@stroud.gov.uk","555","FHRS","false","",""
"45","993272","17/00187/FOOD","Deluca's Ice Cream","Mobile caterer","7846","The Old Workshop","Crawfold Business Park","Balls Cross","Ebernoe","GU28 9JT","5","fhrs_5_en-gb","","20 June 2017","325","Chichester","http://www.chichester.gov.uk","environmentalhealth@chichester.gov.uk","000","FHRS","false","-0.57568251.0250549",""
"46","990294","41522","Den Ice Cream","Mobile caterer","7846","","","","","PR3 ","5","fhrs_5_en-gb","","25 July 2017","202","Preston","http://www.preston.gov.uk","info@preston.gov.uk","000","FHRS","false","",""
"47","918734","220075","Devon Vintage Ice Cream","Mobile caterer","7846","Westmoor View","Boringdon Road","Plympton","Plymouth","PL7 4DZ","5","fhrs_5_en-gb","","03 July 2018","891","Plymouth City","http://www.plymouth.gov.uk","public.protection@plymouth.gov.uk","000","FHRS","false","-4.05747650.39149",""
"48","918735","220076","Devon Vintage Ice Cream","Mobile caterer","7846","Westmoor View","Boringdon Road","Plympton","Plymouth","PL7 4DZ","5","fhrs_5_en-gb","","03 July 2018","891","Plymouth City","http://www.plymouth.gov.uk","public.protection@plymouth.gov.uk","000","FHRS","false","-4.05747650.39149",""
"49","122658","5111","Dimascio Ice Cream","Mobile caterer","7846","Westfield House","Edithmead","Highbridge","","TA9 4HE","5","fhrs_5_en-gb","","24 August 2016","282","Sedgemoor","http://www.sedgemoor.gov.uk","environmental.services@sedgemoor.gov.uk","555","FHRS","false","-2.95189251.2362862",""
"50","1077060","PI/000008754","Dom's Ice Cream","Mobile caterer","7846","2 Marden Cottages","Old North Road","Bassingbourn Cum Kneesworth","Cambridgeshire","SG8 5JU","5","fhrs_5_en-gb","","10 September 2018","032","South Cambridgeshire","http://www.scambs.gov.uk/","env.health@scambs.gov.uk","555","FHRS","false","-0.032550552.07004",""
"51","548376","PI/000065115","Donalds Ice Cream","Mobile caterer","7846","","","","","CT21","5","fhrs_5_en-gb","","09 May 2017","188","Folkestone and Hythe","http://www.folkestone-hythe.gov.uk","foodteam@folkestone-hythe.gov.uk","000","FHRS","false","",""
"52","862645","15/00399/COM","Dotty About Ice Cream","Mobile caterer","7846","","","","","SY14","5","fhrs_5_en-gb","","11 June 2018","704","Cheshire West and Chester","http://www.cheshirewestandchester.gov.uk","foodsafety@cheshirewestandchester.gov.uk","555","FHRS","false","",""
"53","909263","PI/000040468","Drifters Ice Cream","Mobile caterer","7846","","","","","BN12","5","fhrs_5_en-gb","","16 August 2016","329","Worthing","http://www.adur-worthing.gov.uk","publichealth.regulation@adur-worthing.gov.uk","000","FHRS","false","",""
"54","995311","3143","DUKES ICE CREAM","Mobile caterer","7846","","","","","DT6 ","5","fhrs_5_en-gb","","27 July 2018","085","Dorset","https://www.dorsetcouncil.gov.uk/","envhealthteamb@dorsetcouncil.gov.uk","000","FHRS","false","",""
"55","1134966","100060356262","Elsie'S Ice Cream","Mobile caterer","7846","","","","","PO14","5","fhrs_5_en-gb","","10 May 2019","134","Fareham","http://www.fareham.gov.uk","regulatory@fareham.gov.uk","555","FHRS","false","",""
"56","185343","R131EN108C/1","Eric's Ice Cream","Mobile caterer","7846","","","","","LE19","5","fhrs_5_en-gb","","21 March 2018","209","Blaby","http://www.blaby.gov.uk","environmental.health@blaby.gov.uk","555","FHRS","false","",""
"57","26890","08/00608/CP","Erics Ice Cream","Mobile caterer","7846","197 Winstanley Drive","Leicester","","","LE3 1PD","5","fhrs_5_en-gb","","10 August 2018","878","Leicester City","http://www.leicester.gov.uk/food","food@leicester.gov.uk","000","FHRS","false","-1.16899252.6261024",""
"58","783731","87302","Espositos Ice Cream Parlour","Mobile caterer","7846","Victoria Park","Birchfield Road","Widnes","","WA8 6PX","5","fhrs_5_en-gb","","17 August 2018","889","Halton","http://www.halton.gov.uk","FSA_Enforcement@halton.gov.uk","000","FHRS","false","-2.73248653.3742142",""
"59","1126970","199764","Essex Ice Cream Hire","Mobile caterer","7846","","227 Fullwell Avenue","","Ilford","IG5 0RB","5","fhrs_5_en-gb","","21 November 2018","526","Redbridge","http://www.redbridge.gov.uk/","themis.skouros@redbridge.gov.uk","555","FHRS","false","0.07038951.59629",""
"60","316207","PI/000022460","Fantasy Ice Cream","Mobile caterer","7846","","","","","N18 ","5","fhrs_5_en-gb","","22 March 2019","510","Enfield","http://www.enfield.gov.uk/","environmentalhealth@enfield.gov.uk","505","FHRS","false","",""
"61","1126039","A21KWS52ST/1","Fella's Ice Cream","Mobile caterer","7846","","52 Station Road","St Georges","Weston-Super-Mare North Somer","BS22 7XN","5","fhrs_5_en-gb","","05 March 2019","858","North Somerset","http://www.n-somerset.gov.uk","foodandsafety@n-somerset.gov.uk","000","FHRS","false","-2.8984141351.36194",""
"62","780555","84053","Florrie's Ice Cream","Mobile caterer","7846","The Green","","Llansteffan","Carmarthen","SA33 5JX","5","fhrs_5_en-gb","","16 May 2019","558","Carmarthenshire","http://www.carmarthenshire.gov.uk","PublicProtection@carmarthenshire.gov.uk","550","FHRS","false","-4.39630451.7654533",""
"63","1028682","18/00040/COM","Flossie Ice Cream","Mobile caterer","7846","","","","","WA6 ","5","fhrs_5_en-gb","","23 May 2019","704","Cheshire West and Chester","http://www.cheshirewestandchester.gov.uk","foodsafety@cheshirewestandchester.gov.uk","000","FHRS","false","",""
"64","454464","12/00593/MIXED","Francas Ice Cream","Mobile caterer","7846","4 Abbey Barn Road","High Wycombe","Buckinghamshire","","HP11 1RS","5","fhrs_5_en-gb","","30 January 2016","025","Wycombe","http://www.wycombe.gov.uk","Food.Ratings@wycombe.gov.uk","005","FHRS","false","-0.717468751.6185875",""
"65","216165","52690","Fred's Whipped Ice Cream","Mobile caterer","7846","","Private Address","Kingston Upon Hull","","HU9","5","fhrs_5_en-gb","","27 March 2019","866","Hull City","http://www.hull.gov.uk","foodandhealth&safety@hullcc.gov.uk","005","FHRS","false","-0.30257153.7398",""
"66","157347","EHFDI/13951/11","Gino'S Ice Cream","Mobile caterer","7846","Fantasy Island","Sea Lane","Ingoldmells Skegness","","PE25 1RH","5","fhrs_5_en-gb","","02 June 2018","220","East Lindsey","http://www.e-lindsey.gov.uk/","customerservices@e-lindsey.gov.uk","555","FHRS","false","0.34958453.1910973",""
"67","1047687","18/00103/FOOD","Giuseppe's Super Ice Cream","Mobile caterer","7846","465 Ferndale Road","Swindon","","","SN2 1DF","5","fhrs_5_en-gb","","09 October 2018","881","Swindon","http://www.swindon.gov.uk/","foodhealth&safety@swindon.gov.uk","005","FHRS","false","-1.7940592851.5708656",""
"68","955881","60735","Gladys Ice Cream","Mobile caterer","7846","","5 Swaffham Road","Mundford","Norfolk","IP26 5EH","5","fhrs_5_en-gb","","26 April 2019","227","Breckland","http://www.breckland.gov.uk/","foodandhealth&safety@breckland.gov.uk","555","FHRS","false","0.65724652.5104179",""
"69","956746","56222","Graham Penrose Ice Cream","Mobile caterer","7846","","","","","PO6 ","5","fhrs_5_en-gb","","10 May 2017","876","Portsmouth","http://www.portsmouth.gov.uk","public.protection@portsmouthcc.gov.uk","055","FHRS","false","",""
"70","1059846","143179","Granelli's Ice Cream","Mobile caterer","7846","","Moor View","Rochdale Road","Bacup","OL13 9SD","5","fhrs_5_en-gb","","26 June 2018","419","Rochdale","http://www.rochdale.gov.uk","environmental.health2@rochdale.gov.uk","005","FHRS","false","-2.17780353.6903458",""
"71","148419","9334","Granelli's Ice Cream","Mobile caterer","7846","","","","","OL13","5","fhrs_5_en-gb","","16 April 2019","419","Rochdale","http://www.rochdale.gov.uk","environmental.health2@rochdale.gov.uk","000","FHRS","false","",""
"72","1069905","18/00112/FOOD","Granny Smith's Ice Cream","Mobile caterer","7846","","","","","CV35","5","fhrs_5_en-gb","","19 October 2018","320","Stratford-on-Avon","http://www.stratford.gov.uk","food@stratford-dc.gov.uk","000","FHRS","false","",""
"73","267315","PI/000002044","Grays Ice Cream","Mobile caterer","7846","","","","","CA15","5","fhrs_5_en-gb","","07 November 2018","055","Allerdale","http://www.allerdale.gov.uk","environmental.health@allerdale.gov.uk","050","FHRS","false","",""
"74","857822","235100","Gwaun Valley Ice cream","Mobile caterer","7846","","","","","","5","fhrs_5_en-gb","","31 January 2018","565","Pembrokeshire","http://www.pembrokeshire.gov.uk","foodratings@pembrokeshire.gov.uk","050","FHRS","false","",""
"75","1055536","69433","HALLS WHIPPY ICE CREAM","Mobile caterer","7846","","","","","ST5 ","5","fhrs_5_en-gb","","12 July 2018","290","Newcastle-Under-Lyme","http://www.newcastle-staffs.gov.uk/","foodandsafety@newcastle-staffs.gov.uk","000","FHRS","false","",""
"76","555757","10/04146/COMM","Harewood Ice Cream","Mobile caterer","7846","Unit G York Road Industrial Estate","York Road","Wetherby","","LS22 7SU","5","fhrs_5_en-gb","","04 June 2013","413","Leeds","http://www.leeds.gov.uk/","food.safety@leeds.gov.uk","000","FHRS","false","-1.38090453.9332771",""
"77","489246","80444","Hereford Ice Cream","Mobile caterer","7846","","","","","HR2 ","5","fhrs_5_en-gb","","07 September 2010","895","Herefordshire","http://www.herefordshire.gov.uk/","info@herefordshire.gov.uk","505","FHRS","false","",""
"78","974237","52918","Hiban Soft Ice Cream","Mobile caterer","7846","","","","","HA9 ","5","fhrs_5_en-gb","","06 September 2017","504","Brent","http://www.brent.gov.uk/","ens.foodsafety@brent.gov.uk","000","FHRS","false","",""
"79","1056452","18/00056/FOODHS","Horse Box Ice Cream","Mobile caterer","7846","","","","","LE16","5","fhrs_5_en-gb","","03 October 2018","211","Harborough","http://www.harborough.gov.uk","foodandsafety@harborough.gov.uk","050","FHRS","false","",""
"80","507116","PI/000080825","I Verrecchia Ice Cream","Mobile caterer","7846","","","","","CB1 ","5","fhrs_5_en-gb","","26 April 2018","027","Cambridge City","http://www.cambridge.gov.uk","env.health@cambridge.gov.uk","055","FHRS","false","",""
"81","117328","465432","Ian McMullan Ice Cream","Mobile caterer","7846","","","","","M23 ","5","fhrs_5_en-gb","","13 April 2011","415","Manchester","http://www.manchester.gov.uk","envhealth@manchester.gov.uk","555","FHRS","false","",""
"82","610380","116625","Ice Cream (WO06 LBP)","Mobile caterer","7846","","","","","BS9 ","5","fhrs_5_en-gb","","15 April 2019","855","Bristol","http://www.bristol.gov.uk","food.safety@bristol.gov.uk","000","FHRS","false","",""
"83","965825","17/00223/FOOD","Ice Cream Booth's","Mobile caterer","7846","","","","","B60 ","5","fhrs_5_en-gb","","18 August 2017","145","Bromsgrove","http://www.worcsregservices.gov.uk","enquiries@worcsregservices.gov.uk","000","FHRS","false","",""
"84","1107498","8977","Ice Cream Cart","Mobile caterer","7846","","","","","FY8 1","5","fhrs_5_en-gb","","25 March 2019","198","Fylde","http://www.fylde.gov.uk/environment/environmental-health/food-safety/national-food-hygiene-rating-scheme/","commercial@fylde.gov.uk","505","FHRS","false","",""
"85","1041315","2018/000028","Ice Cream Dreams","Mobile caterer","7846","","","","","PE15","5","fhrs_5_en-gb","","31 July 2018","029","Fenland","http://www.fenland.gov.uk/article/2117/Food-Safety","environmentalservicerequests@fenland.gov.uk","050","FHRS","false","",""
"86","69314","155767","Ice Cream Experience","Mobile caterer","7846","","","","","","5","fhrs_5_en-gb","","17 August 2016","422","Salford","http://www.salford.gov.uk/envhealth.htm","environmentalhealth@salford.gov.uk","055","FHRS","false","",""
"87","1084270","16/00175/COM","Ice Cream Experience","Mobile caterer","7846","Ice Cream Experience","5 Petrel Close","Droylsden","Tameside","M43 7TE","5","fhrs_5_en-gb","","06 September 2018","430","Tameside","http://www.tameside.gov.uk","environmentalhealth@tameside.gov.uk","555","FHRS","false","-2.13417753.4909821",""
"88","565761","35597","Ice Cream Ltd","Mobile caterer","7846","","","","","NP4 ","5","fhrs_5_en-gb","","29 August 2018","569","Torfaen","http://www.torfaen.gov.uk/","commercial.services@torfaen.gov.uk","555","FHRS","false","",""
"89","782815","185161","Ice cream peddler","Mobile caterer","7846","Thomas Briggs buildings","2-4 Southgate Road","Hackney","London","N1 3JJ","5","fhrs_5_en-gb","","11 January 2019","512","Hackney","http://www.hackney.gov.uk/e-env-environmental-health.htm","technicalbusinesssupport@hackney.gov.uk","555","FHRS","false","-0.08608851.5377159",""
"90","956954","64187","Ice Cream Rescue","Mobile caterer","7846","Museum Gardens","Museum Street","York","","","5","fhrs_5_en-gb","","12 April 2017","868","York","http://www.york.gov.uk","public.protection@york.gov.uk","005","FHRS","false","",""
"91","1153124","153121","Ice Cream Station","Mobile caterer","7846","","","","","","5","fhrs_5_en-gb","","23 May 2019","856","South Gloucestershire","http://www.southglos.gov.uk","foodandhealth@southglos.gov.uk","555","FHRS","false","",""
"92","858297","10/00051/FOOD","Ice Cream Trader","Mobile caterer","7846","","","","","L35 ","5","fhrs_5_en-gb","","28 March 2017","412","Knowsley","http://www.knowsley.gov.uk","environmentalhealth@knowsley.gov.uk","505","FHRS","false","",""
"93","1067418","PI/000106559","Ice Cream Trailer","Mobile caterer","7846","","","","","CT9 ","5","fhrs_5_en-gb","","10 July 2018","190","Thanet","http://www.thanet.gov.uk","environmental.health@thanet.gov.uk","000","FHRS","false","",""
"94","835851","403324","Ice Cream Trailer","Mobile caterer","7846","","","","","BT52","5","fhrs_5_en-gb","","24 July 2017","805","Causeway Coast and Glens","http://www.causewaycoastandglens.gov.uk","food@causewaycoastandglens.gov.uk","000","FHRS","false","",""
"95","953938","CP17_000205","Ice Cream Trike","Mobile caterer","7846","Halloon Farm","Halloon Roundabout","Trevarren","St Columb","TR9 6PH","5","fhrs_5_en-gb","","28 April 2017","705","Cornwall","http://www.cornwall.gov.uk","publicprotection@cornwall.gov.uk","555","FHRS","false","-4.94070850.40278",""
"96","810899","15/00311/COMM","Ice Cream Van","Mobile caterer","7846","The Queen's Walk South Bank","London","SE1","","","5","fhrs_5_en-gb","","30 September 2015","522","Lambeth","http://www.lambeth.gov.uk","foodhealthandsafety@lambeth.gov.uk","000","FHRS","false","",""
"97","960657","17/00144/FOOD","Ice Cream Van","Mobile caterer","7846","","","","","NE28","5","fhrs_5_en-gb","","17 March 2017","417","North Tyneside","http://www.northtyneside.gov.uk/","environmental.health@northtyneside.gov.uk","005","FHRS","false","",""
"98","256116","PI/000179277","Ice Cream Van","Mobile caterer","7846","","","","","SE4 ","5","fhrs_5_en-gb","","23 March 2017","523","Lewisham","http://www.lewisham.gov.uk/myservices/business/food-safety/Pages/default.aspx","david.edwards@lewisham.gov.uk","555","FHRS","false","",""
"99","532955","31618","Ice Cream Van","Mobile caterer","7846","","","","","NW10","5","fhrs_5_en-gb","","16 August 2017","504","Brent","http://www.brent.gov.uk/","ens.foodsafety@brent.gov.uk","005","FHRS","false","",""
"100","974942","42050","Ice Cream Van","Mobile caterer","7846","","","","","WV6 ","5","fhrs_5_en-gb","","16 August 2017","436","Wolverhampton","http://www.wolverhampton.gov.uk/","customer.services@wolverhampton.gov.uk","050","FHRS","false","",""
"101","219693","09/00058/FOOD","Ice Cream Van","Mobile caterer","7846","249 Foundry Lane","Southampton","","","SO15 3JS","5","fhrs_5_en-gb","","29 June 2009","877","Southampton","http://www.southampton.gov.uk","hygiene.rating@southampton.gov.uk","555","FHRS","false","-1.43346250.919136",""
"102","860672","PI/000011940","Ice Cream Van","Mobile caterer","7846","","","","","CR4 ","5","fhrs_5_en-gb","","04 June 2018","524","Merton","http://www.merton.gov.uk","EHCommercial@merton.gov.uk","000","FHRS","false","",""
"103","256406","PI/000002844","Ice Cream Van","Mobile caterer","7846","","","","","SE13","5","fhrs_5_en-gb","","02 August 2018","523","Lewisham","http://www.lewisham.gov.uk/myservices/business/food-safety/Pages/default.aspx","david.edwards@lewisham.gov.uk","005","FHRS","false","",""
"104","954818","PI/000180531","Ice Cream van","Mobile caterer","7846","","","","","EN1 ","5","fhrs_5_en-gb","","07 November 2018","510","Enfield","http://www.enfield.gov.uk/","environmentalhealth@enfield.gov.uk","000","FHRS","false","",""
"105","836092","600875","Ice Cream Van","Mobile caterer","7846","","","","","BT53","5","fhrs_5_en-gb","","05 May 2016","805","Causeway Coast and Glens","http://www.causewaycoastandglens.gov.uk","food@causewaycoastandglens.gov.uk","000","FHRS","false","",""
"106","227649","PI/000077071","Ice Cream Van","Mobile caterer","7846","Mobile Snack Bar","Greenhead Park","Huddersfield","","","5","fhrs_5_en-gb","","22 July 2015","411","Kirklees","http://www.kirklees.gov.uk/","food.safety@kirklees.gov.uk","555","FHRS","false","",""
"107","956751","56230","Ice Cream Van","Mobile caterer","7846","Main Road","Portsmouth","","","PO1 3LJ","5","fhrs_5_en-gb","","11 May 2017","876","Portsmouth","http://www.portsmouth.gov.uk","public.protection@portsmouthcc.gov.uk","050","FHRS","false","-1.10718750.79906",""
"108","375983","EHFDI/07071/12","Ice Cream Van","Mobile caterer","7846","68 Roman Bank","Skegness","Lincolnshire","","PE25 2SP","5","fhrs_5_en-gb","","12 April 2019","220","East Lindsey","http://www.e-lindsey.gov.uk/","customerservices@e-lindsey.gov.uk","555","FHRS","false","0.33932553.1483765",""
"109","1137620","65601","Ice Cream Van","Mobile caterer","7846","","","","","","5","fhrs_5_en-gb","","16 May 2019","418","Oldham","https://www.oldham.gov.uk","FHRS@oldham.gov.uk","555","FHRS","false","",""
"110","833684","26848","Ice Cream Van","Mobile caterer","7846","Chessington World Of Adventures","Leatherhead Road","Chessington","","KT9 2NE","5","fhrs_5_en-gb","","15 June 2018","521","Kingston-Upon-Thames","http://www.kingston.gov.uk","ehadmin@kingston.gov.uk","000","FHRS","false","-0.31479451.3486137",""
"111","863440","17981","Ice Cream Van Wales","Mobile caterer","7846","","","","","SY25","5","fhrs_5_en-gb","","14 June 2019","557","Ceredigion","http://www.ceredigion.gov.uk/","envhealth@ceredigion.gov.uk","005","FHRS","false","",""
"112","752482","68864","Ice Cream Vehicle","Mobile caterer","7846","","","","","NG7 ","5","fhrs_5_en-gb","","13 March 2018","899","Nottingham City","http://www.nottinghamcity.gov.uk/foodsafety","food.enforcement@nottinghamcity.gov.uk","005","FHRS","false","",""
"113","1056864","20913","Ice Cream Vendors/Mobiles","Mobile caterer","7846","Bradgate Park","Bradgate Road","","Newtown Linford","","5","fhrs_5_en-gb","","23 May 2018","210","Charnwood","http://www.charnwood.gov.uk/","food.hygiene@charnwood.gov.uk","050","FHRS","false","",""
"114","721692","PI/000094800/MA","Ida's Ice Cream","Mobile caterer","7846","","","","","ME14","5","fhrs_5_en-gb","","10 April 2014","185","Maidstone","http://www.maidstone.gov.uk/","EHAdmin@midkent.gov.uk","005","FHRS","false","",""
"115","1045038","PI/000167800","Irresistible Ice Cream","Mobile caterer","7846","","","","","BN8 ","5","fhrs_5_en-gb","","11 May 2018","107","Wealden","http://www.wealden.gov.uk","envhealth@rother.gov.uk","555","FHRS","false","",""
"116","814662","12/00295/FOOD","J Atkinson Ice Cream","Mobile caterer","7846","","","","","","5","fhrs_5_en-gb","","19 September 2013","417","North Tyneside","http://www.northtyneside.gov.uk/","environmental.health@northtyneside.gov.uk","005","FHRS","false","",""
"117","451794","91459","Jack's Ice Cream","Mobile caterer","7846","","","","","TW1 ","5","fhrs_5_en-gb","","02 May 2014","527","Richmond-Upon-Thames","http://www.richmond.gov.uk","commercialeh@richmond.gov.uk","505","FHRS","false","",""
"118","1063404","160767","Jacks Ice Cream","Mobile caterer","7846","","","","","SA5 ","5","fhrs_5_en-gb","","21 June 2018","568","Swansea","http://www.swansea.gov.uk","FoodandSafety@swansea.gov.uk","505","FHRS","false","",""
"119","727951","PI/000028759","Jasons Symonds Ice Cream","Mobile caterer","7846","","","","","ME3 ","5","fhrs_5_en-gb","","20 July 2017","896","Medway","http://www.medway.gov.uk/","foodandsafety@medway.gov.uk","000","FHRS","false","",""
"120","1050716","59359","Jersey Ice Cream","Mobile caterer","7846","","59 Balfour Road","Preston","","PR2 3BY","5","fhrs_5_en-gb","","13 July 2018","202","Preston","http://www.preston.gov.uk","info@preston.gov.uk","005","FHRS","false","-2.71262153.7742767",""
"121","761319","15/00040/FOOD","Joe's Whippy Ice Cream","Mobile caterer","7846","","","","","SN3 ","5","fhrs_5_en-gb","","05 June 2017","881","Swindon","http://www.swindon.gov.uk/","foodhealth&safety@swindon.gov.uk","550","FHRS","false","",""
"122","419981","109860","Jon's Ice Cream","Mobile caterer","7846","","34 Barrymore Avenue","","Warrington","WA4 1SB","5","fhrs_5_en-gb","","24 October 2018","890","Warrington","http://www.warrington.gov.uk","environmental.health@warrington.gov.uk","000","FHRS","false","-2.55753553.3864326",""
"123","1044542","101162","Kapuxa Ice Cream","Mobile caterer","7846","","19 Mill Lane","","Aylsham","NR11 6WA","5","fhrs_5_en-gb","","06 April 2018","228","Broadland","http://www.broadland.gov.uk","foodandsafety@broadland.gov.uk","555","FHRS","false","1.23970152.7938766",""
"124","800929","61463","Kelly's Ice Cream","Mobile caterer","7846","","Private Address","Kingston Upon Hull","","HU3","5","fhrs_5_en-gb","","21 July 2017","866","Hull City","http://www.hull.gov.uk","foodandhealth&safety@hullcc.gov.uk","055","FHRS","false","-0.36912553.7398834",""
"125","1068349","18/00172/COM","King Whippy Ice Cream","Mobile caterer","7846","","","","","OL7 ","5","fhrs_5_en-gb","","08 June 2018","430","Tameside","http://www.tameside.gov.uk","environmentalhealth@tameside.gov.uk","000","FHRS","false","",""
"126","1035943","HR/248","Knights Ice Cream","Mobile caterer","7846","","","","","RH12","5","fhrs_5_en-gb","","03 April 2018","327","Horsham","http://www.horsham.gov.uk","publichealth.licensing@horsham.gov.uk","050","FHRS","false","",""
"127","715644","49089","Lanza's Ice Cream","Mobile caterer","7846","","","","","","5","fhrs_5_en-gb","","22 October 2014","293","Staffordshire Moorlands","http://www.staffsmoorlands.gov.uk","EnvHealth@highpeak.gcsx.gov.uk","000","FHRS","false","",""
"128","778812","44780","Leos Ice Cream","Mobile caterer","7846","","South Beach Parade","Great Yarmouth","Norfolk","NR30 3EH","5","fhrs_5_en-gb","","14 June 2017","229","Great Yarmouth","http://www.great-yarmouth.gov.uk/live/index.htm","health@great-yarmouth.gov.uk","055","FHRS","false","1.73615352.5945053",""
"129","571249","24511","Levvies Ice Cream","Mobile caterer","7846","Jennacubine","South Beach Road","Heacham","Norfolk","PE31 7BA","5","fhrs_5_en-gb","","02 July 2013","230","King's Lynn and West Norfolk","http://www.west-norfolk.gov.uk/","foodhygieneandsafety@west-norfolk.gov.uk","555","FHRS","false","0.48070852.9037971",""
"130","906933","16/00410/COMM","Lucky Cow Ice Cream","Mobile caterer","7846","","","","","CR0 ","5","fhrs_5_en-gb","","05 July 2016","507","Croydon","http://www.croydon.gov.uk","food.safety@croydon.gov.uk","055","FHRS","false","",""
"131","990381","22165","M&N Ice Cream Van","Mobile caterer","7846","","","","","BH14","5","fhrs_5_en-gb","","25 January 2019","872","Bournemouth, Christchurch and Poole","http://www.bournemouth.gov.uk","foodandhealthandsafety@bournemouth.gov.uk","555","FHRS","false","",""
"132","910099","PI/000073000","Mabel's Ice Cream","Mobile caterer","7846","","","","","EX33","5","fhrs_5_en-gb","","23 August 2016","075","North Devon","http://www.northdevon.gov.uk","customerservices@northdevon.gov.uk","000","FHRS","false","",""
"133","69039","154803","Manfredi Ice Cream","Mobile caterer","7846","","","","","","5","fhrs_5_en-gb","","20 February 2018","422","Salford","http://www.salford.gov.uk/envhealth.htm","environmentalhealth@salford.gov.uk","505","FHRS","false","",""
"134","1085517","PI/000130528","Manfredi's Ice Cream Vans","Mobile caterer","7846","58 Newgate Street","Worksop","Nottinghamshire","","S80 2HD","5","fhrs_5_en-gb","","25 October 2018","260","Bassetlaw","http://www.bassetlaw.gov.uk","environmental.health@bassetlaw.gov.uk","000","FHRS","false","-1.12253853.3009338",""
"135","862057","125121","Manny's Ice Cream","Mobile caterer","7846","","9 Greenbank Road","Easton","Bristol","BS5 6EZ","5","fhrs_5_en-gb","","02 May 2017","855","Bristol","http://www.bristol.gov.uk","food.safety@bristol.gov.uk","000","FHRS","false","-2.56001651.4680367",""
"136","315861","81884","Mario Ice Cream","Mobile caterer","7846","40 DEAN ROAD FAIR OAK EASTLEIGH SO50 7JE","","","","SO50 7JE","5","fhrs_5_en-gb","","30 April 2018","133","Eastleigh","http://www.eastleigh.gov.uk/","eh@eastleigh.gov.uk","555","FHRS","false","-1.3033286350.9613953",""
"137","1077782","151773","Marshfield Mobile Ice Cream","Mobile caterer","7846","Marshfield Farm","","Hinton","South Gloucestershire","SN14 8HH","5","fhrs_5_en-gb","","23 August 2018","856","South Gloucestershire","http://www.southglos.gov.uk","foodandhealth@southglos.gov.uk","005","FHRS","false","-2.39341451.4886246",""
"138","141858","78353","Marucci Ice Cream","Mobile caterer","7846","62 WINCHESTER ROAD CHANDLER'S FORD EASTLEIGH SO53 2GN","","","","SO53 2GN","5","fhrs_5_en-gb","","14 January 2019","133","Eastleigh","http://www.eastleigh.gov.uk/","eh@eastleigh.gov.uk","000","FHRS","false","-1.3785653150.9857063",""
"139","1097526","00977","MARY MARUCCI'S ICE CREAM","Mobile caterer","7846","","","","","SO50","5","fhrs_5_en-gb","","24 April 2019","133","Eastleigh","http://www.eastleigh.gov.uk/","eh@eastleigh.gov.uk","000","FHRS","false","",""
"140","419699","107877","Matt's Ices/MB Ice Cream","Mobile caterer","7846","","","","","WA3 ","5","fhrs_5_en-gb","","27 June 2019","890","Warrington","http://www.warrington.gov.uk","environmental.health@warrington.gov.uk","000","FHRS","false","",""
"141","513480","13/00333/MOBIC","McKenna Ice Cream","Mobile caterer","7846","","","","","SS2 ","5","fhrs_5_en-gb","","05 May 2017","893","Southend-On-Sea","http://www.southend.gov.uk","EnvironmentalHealth@southend.gov.uk","500","FHRS","false","",""
"142","1152136","349583","Merlin Ice Cream Van","Mobile caterer","7846","Nangreaves Street","Leigh","","","WN7 4TN","5","fhrs_5_en-gb","","13 June 2019","434","Wigan","http://www.wigan.gov.uk/","comm@wigan.gov.uk","555","FHRS","false","-2.54092853.49951",""
"143","1053551","PI/000097614","Mingoia Ice Cream","Mobile caterer","7846","","","","","KT12","5","fhrs_5_en-gb","","17 May 2018","305","Elmbridge","http://www.elmbridge.gov.uk/food","envhealth@elmbridge.gov.uk","000","FHRS","false","",""
"144","977221","C/17/00065/COM","Mini Ice Cream Van","Mobile caterer","7846","2 Notgrove Road","Cold Aston","Cheltenham","Gloucestershire","GL54 3BP","5","fhrs_5_en-gb","","27 June 2018","125","Cotswold","http://www.cotswold.gov.uk","ers@2020partnership.uk","005","FHRS","false","-1.82198651.87792",""
"145","695352","PI/000183566","Mister Softee Ice Cream","Mobile caterer","7846","Greenwich Park Outside Top Gate Greenwich Park","","","","SE10","5","fhrs_5_en-gb","","24 March 2018","511","Greenwich","http://www.royalgreenwich.gov.uk","health@royalgreenwich.gov.uk","050","FHRS","false","0.00152851.4871254",""
"146","438010","771","Molinari's Ice Cream","Mobile caterer","7846","","","","","S6 1","5","fhrs_5_en-gb","","04 May 2010","425","Sheffield","https://www.sheffield.gov.uk/environment/environmental-health.html","healthprotection@sheffield.gov.uk","505","FHRS","false","",""
"147","875006","PI/000107742","Moooh Ice Cream","Mobile caterer","7846","","","","","GU6 ","5","fhrs_5_en-gb","","08 August 2018","314","Waverley","http://www.waverley.gov.uk","environmentalhealth@waverley.gov.uk","000","FHRS","false","",""
"148","972398","41756","Mountain Village Ice Cream","Mobile caterer","7846","","","","","LA9 ","5","fhrs_5_en-gb","","16 May 2017","060","South Lakeland","http://www.southlakeland.gov.uk","publicprotection@southlakeland.gov.uk","000","FHRS","false","",""
"149","315667","4952","Mr Carlos Ice Cream","Mobile caterer","7846","","","","","KT15","5","fhrs_5_en-gb","","15 May 2018","310","Runnymede","http://www.runnymede.gov.uk/portal/site/runnymede","helen.jones@runnymede.gov.uk","000","FHRS","false","",""
"150","909029","123572","Mr Ice Cream Man","Mobile caterer","7846","","","Bedford","","","5","fhrs_5_en-gb","","29 August 2018","701","Bedford","http://www.bedford.gov.uk","ehadmin@bedford.gov.uk","000","FHRS","false","-0.4636952.13921",""
"151","990963","PI/000077780","Mr Witheys Ice Cream","Mobile caterer","7846","","","","","BA11","5","fhrs_5_en-gb","","25 May 2017","281","Mendip","http://www.mendip.gov.uk","env-health@mendip.gov.uk","505","FHRS","false","",""
"152","1061541","18/0154","Naomi's Vintage Ice Cream","Mobile caterer","7846","","","","","PE33","5","fhrs_5_en-gb","","10 October 2018","230","King's Lynn and West Norfolk","http://www.west-norfolk.gov.uk/","foodhygieneandsafety@west-norfolk.gov.uk","555","FHRS","false","",""
"153","1049865","101244","Nicks Traditional Ice Cream","Mobile caterer","7846","","","","","NR10","5","fhrs_5_en-gb","","03 May 2018","228","Broadland","http://www.broadland.gov.uk","foodandsafety@broadland.gov.uk","005","FHRS","false","",""
"154","623226","9224","Nigels Ice Cream","Mobile caterer","7846","","46 Glasfryn","Llanelli","Carmarthenshire","SA14 8PG","5","fhrs_5_en-gb","","06 March 2018","558","Carmarthenshire","http://www.carmarthenshire.gov.uk","PublicProtection@carmarthenshire.gov.uk","000","FHRS","false","-4.14100751.69221",""
"155","95408","28392","Nino's Ice cream","Mobile caterer","7846","","","Bedford","","","5","fhrs_5_en-gb","","18 January 2019","701","Bedford","http://www.bedford.gov.uk","ehadmin@bedford.gov.uk","000","FHRS","false","-0.4636952.13921",""
"156","812502","PI/000073565","Norfolk Ice Cream","Mobile caterer","7846","","","","","NR25","5","fhrs_5_en-gb","","03 August 2017","231","North Norfolk","http://www.northnorfolk.gov.uk","commercial@north-norfolk.gov.uk","505","FHRS","false","",""
"157","276286","PI/000031150","Notarianni Ice Cream","Mobile caterer","7846","","","","","HA5 ","5","fhrs_5_en-gb","","02 October 2018","515","Harrow","http://www.harrow.gov.uk","ehealth@harrow.gov.uk","555","FHRS","false","",""
"158","903933","16/00364/MOBIL","Nutts About Ice Cream","Mobile caterer","7846","The Garden Centre","Grange Road","Facit","Rochdale","OL12 8LF","5","fhrs_5_en-gb","","06 February 2017","204","Rossendale","http://www.rossendale.gov.uk","envhealth@rossendalebc.gov.uk","555","FHRS","false","-2.16809753.6679",""
"159","927683","CP16_000917","P M Ice Cream","Mobile caterer","7846","","","","","EX23","5","fhrs_5_en-gb","","24 October 2018","705","Cornwall","http://www.cornwall.gov.uk","publicprotection@cornwall.gov.uk","555","FHRS","false","",""
"160","1051899","136093","Party Delights Ice Cream","Mobile caterer","7846","","","","","NG34","5","fhrs_5_en-gb","","30 May 2018","222","North Kesteven","http://www.n-kesteven.gov.uk","EHTeam@n-kesteven.gov.uk","000","FHRS","false","",""
"161","1053648","715252","Pashley ice cream bicycles","Mobile caterer","7846","","","","","SG7 ","5","fhrs_5_en-gb","","19 September 2018","159","North Hertfordshire","http://www.north-herts.gov.uk","env.health@north-herts.gov.uk","005","FHRS","false","",""
"162","967696","713081","Paul's Ice Cream Van","Mobile caterer","7846","","","","","CF32","5","fhrs_5_en-gb","","22 January 2014","553","Bridgend","http://www.bridgend.gov.uk/","publicprotection@bridgend.gov.uk","005","FHRS","false","",""
"163","452282","38082","Pauls Ice Cream","Mobile caterer","7846","","","","","L37 ","5","fhrs_5_en-gb","","12 July 2018","424","Sefton","http://www.sefton.gov.uk/","ETSContact@sefton.gov.uk","555","FHRS","false","",""
"164","427022","36713","Pavillion Ice Cream Bar","Mobile caterer","7846","Denwick Lane","Alnwick","Northumberland","","NE66 1YU","5","fhrs_5_en-gb","","26 June 2019","707","Northumberland","http://www.northumberland.gov.uk","public.protection@northumberland.gov.uk","000","FHRS","false","-1.69677655.41295",""
"165","743280","PI/000011847","Penelope's Vintage Ice Cream","Mobile caterer","7846","","","","","Pri","5","fhrs_5_en-gb","","19 June 2019","240","South Northamptonshire","http://www.southnorthants.gov.uk/","CommAndBusSupport@CherwellandSouthNorthants.gov.uk","050","FHRS","false","",""
"166","249112","11700/0007/0/000","Pete's Ice Cream","Mobile caterer","7846","7 Ladywood","Ironbridge","Telford","Shropshire","TF8 7JR","5","fhrs_5_en-gb","","14 July 2016","900","Telford and Wrekin Council","http://www.telford.gov.uk/","environmental.health@telford.gov.uk","555","FHRS","false","-2.48441852.6266747",""
"167","1064199","175041","Pete's Ice Cream","Mobile caterer","7846","","4 Cedar Drive","","Loddiswell","TQ7 4BQ","5","fhrs_5_en-gb","","12 July 2018","077","South Hams","http://www.southhams.gov.uk/","environmental.health@southhams.gov.uk","055","FHRS","false","-3.79992350.325573",""
"168","1012037","220195","Petes Ice Cream","Mobile caterer","7846","Frys Nursery","Haye Road","Plymouth","","PL9 8HS","5","fhrs_5_en-gb","","10 October 2017","891","Plymouth City","http://www.plymouth.gov.uk","public.protection@plymouth.gov.uk","555","FHRS","false","-4.06594550.36199",""
"169","775981","CP15_000453","Portreath Ice Cream Kiosk","Mobile caterer","7846","Ice Cream Mobile Unit","Car Park","Sea Front","Portreath","TR16 4NN","5","fhrs_5_en-gb","","07 May 2019","705","Cornwall","http://www.cornwall.gov.uk","publicprotection@cornwall.gov.uk","000","FHRS","false","-5.29219250.2608948",""
"170","70934","16045","Portsmouth Ice Cream Company","Mobile caterer","7846","56 Winstanley Road","Portsmouth","","","PO2 8JT","5","fhrs_5_en-gb","","13 July 2016","876","Portsmouth","http://www.portsmouth.gov.uk","public.protection@portsmouthcc.gov.uk","555","FHRS","false","-1.08616150.81852",""
"171","1075308","66002","Posh Cow Ice Cream","Mobile caterer","7846","","","","","ST10","5","fhrs_5_en-gb","","06 September 2018","293","Staffordshire Moorlands","http://www.staffsmoorlands.gov.uk","EnvHealth@highpeak.gcsx.gov.uk","005","FHRS","false","",""
"172","55752","12590","Post Ice Cream","Mobile caterer","7846","","Outside Town Centre","","Preston","","5","fhrs_5_en-gb","","22 August 2017","202","Preston","http://www.preston.gov.uk","info@preston.gov.uk","005","FHRS","false","-1.97485953.8108368",""
"173","372937","130529","Promotional Ice Cream Vans","Mobile caterer","7846","","","","","RM5 ","5","fhrs_5_en-gb","","08 September 2016","516","Havering","http://www.havering.gov.uk","environmental.health@havering.gov.uk","505","FHRS","false","",""
"174","976944","1679","Purbeck Ice Cream Events","Mobile caterer","7846","Lower Scoles Farm","","Kingston","Dorset","BH20 5LG","5","fhrs_5_en-gb","","14 September 2018","085","Dorset","https://www.dorsetcouncil.gov.uk/","envhealthteamb@dorsetcouncil.gov.uk","050","FHRS","false","-2.05805650.62026",""
"175","217637","64821","RAL Ice Cream","Mobile caterer","7846","","","","","NG8 ","5","fhrs_5_en-gb","","16 March 2017","899","Nottingham City","http://www.nottinghamcity.gov.uk/foodsafety","food.enforcement@nottinghamcity.gov.uk","000","FHRS","false","",""
"176","1154676","78877","Red Boat Ice Cream","Mobile caterer","7846","Plas Newydd","","Llanfairpwllgwyngyll","Isle Of Anglesey","LL61 6DQ","5","fhrs_5_en-gb","","24 April 2019","551","Anglesey","http://www.ynysmon.gov.uk","iechydyramgylchedd@ynysmon.gov.uk","005","FHRS","false","-4.22294753.2032",""
"177","580669","PI/000067641","Reynolds Ice Cream","Mobile caterer","7846","","","","","TN28","5","fhrs_5_en-gb","","07 June 2016","188","Folkestone and Hythe","http://www.folkestone-hythe.gov.uk","foodteam@folkestone-hythe.gov.uk","555","FHRS","false","",""
"178","55703","12579","Rick's Post Ice Cream","Mobile caterer","7846","","Starchhouse Square","","Preston","","5","fhrs_5_en-gb","","22 August 2017","202","Preston","http://www.preston.gov.uk","info@preston.gov.uk","005","FHRS","false","0.96544552.1909828",""
"179","565877","PI/000063746","Rios Ice Cream","Mobile caterer","7846","","","","","CT19","5","fhrs_5_en-gb","","12 March 2017","188","Folkestone and Hythe","http://www.folkestone-hythe.gov.uk","foodteam@folkestone-hythe.gov.uk","005","FHRS","false","",""
"180","979180","69110","Rob's Ice Cream Van","Mobile caterer","7846","","Private Address","Kingston Upon Hull","","HU6","5","fhrs_5_en-gb","","06 April 2018","866","Hull City","http://www.hull.gov.uk","foodandhealth&safety@hullcc.gov.uk","055","FHRS","false","-0.36925153.783474",""
"181","738442","PI/000038407","Roberts Soft Ice Cream","Mobile caterer","7846","","","","","BN12","5","fhrs_5_en-gb","","19 February 2015","329","Worthing","http://www.adur-worthing.gov.uk","publichealth.regulation@adur-worthing.gov.uk","555","FHRS","false","",""
"182","27466","08050/4000/0/001","Rodneys Ice Cream","Mobile caterer","7846","Ice Cream Kiosk","Hay Hill","Norwich","","NR2 1QQ","5","fhrs_5_en-gb","","06 June 2019","232","Norwich City","https://www.norwich.gov.uk/site/custom_scripts/eh/foodratings.html","foodandsafety@norwich.gov.uk","000","FHRS","false","1.29299552.62747",""
"183","964015","700692","Rolld Ice Cream","Mobile caterer","7846","","","","","BT41","5","fhrs_5_en-gb","","23 May 2019","801","Antrim and Newtownabbey","http://www.antrimandnewtownabbey.gov.uk","envhealth@antrimandnewtownabbey.gov.uk","000","FHRS","false","",""
"184","397648","2089","Ronksley's Ice Cream  N531CWG","Mobile caterer","7846","","","","","S70 ","5","fhrs_5_en-gb","","14 March 2013","401","Barnsley","http://www.barnsley.gov.uk","regulatoryservices@barnsley.gov.uk","055","FHRS","false","",""
"185","866155","68561","Rose's Ice Cream Van","Mobile caterer","7846","","43 Skippers Lane","Normanby","","TS6 0HY","5","fhrs_5_en-gb","","31 August 2016","860","Redcar and Cleveland","http://www.redcar-cleveland.gov.uk","food_team@redcar-cleveland.gov.uk","000","FHRS","false","-1.16573454.55628",""
"186","1045702","CH00159","Rossi Ice Cream","Mobile caterer","7846","","","","","W13 ","5","fhrs_5_en-gb","","17 April 2018","509","Ealing","https://www.ealing.gov.uk/info/201150/food_hygiene_and_safety","foodsafety@ealing.gov.uk","000","FHRS","false","",""
"187","734964","12/00295/CP","Rossi Ice Cream Van","Mobile caterer","7846","","","","","RM15","5","fhrs_5_en-gb","","12 October 2016","894","Thurrock","http://www.thurrock.gov.uk/food","foodsafety@thurrock.gov.uk","505","FHRS","false","",""
"188","861644","16/00070/FOOD","Rossi's Ice Cream","Mobile caterer","7846","","","","","PO20","5","fhrs_5_en-gb","","21 April 2016","325","Chichester","http://www.chichester.gov.uk","environmentalhealth@chichester.gov.uk","055","FHRS","false","",""
"189","874570","133103","Rowleys Traditional Ice Cream","Mobile caterer","7846","","","","","RM2 ","5","fhrs_5_en-gb","","30 January 2017","516","Havering","http://www.havering.gov.uk","environmental.health@havering.gov.uk","005","FHRS","false","",""
"190","927805","PI/000052700","Rutland Ice Cream Company","Mobile caterer","7846","","","","","LE16","5","fhrs_5_en-gb","","11 July 2016","236","Daventry","http://www.daventrydc.gov.uk","healthimprovement@daventrydc.gov.uk","555","FHRS","false","",""
"191","328703","14343","Scoop Ice Cream","Mobile caterer","7846","","","","","LA8 ","5","fhrs_5_en-gb","","28 March 2018","060","South Lakeland","http://www.southlakeland.gov.uk","publicprotection@southlakeland.gov.uk","555","FHRS","false","",""
"192","205619","13250/1100/3/002","Scotts Ice Cream","Mobile caterer","7846","Pitch 6B","Street Trading","","","","5","fhrs_5_en-gb","","04 April 2014","857","Bath and North East Somerset","http://www.bathnes.gov.uk/healthandsocial/foodsafety/Pages/default.aspx","public_protection@bathnes.gov.uk","555","FHRS","false","",""
"193","1126038","A21KWM92CO/1","Sevanetti Ice Cream Bikes","Mobile caterer","7846","","92 Coleridge Road","Weston-Super-Mare","North Somerset","BS23 3UW","5","fhrs_5_en-gb","","21 January 2019","858","North Somerset","http://www.n-somerset.gov.uk","foodandsafety@n-somerset.gov.uk","000","FHRS","false","-2.96150251.329155",""
"194","487832","199654","Shepherds Ice Cream (EVENTS)","Mobile caterer","7846","","","","","HR2 ","5","fhrs_5_en-gb","","26 November 2018","895","Herefordshire","http://www.herefordshire.gov.uk/","info@herefordshire.gov.uk","055","FHRS","false","",""
"195","358776","12/00094/FOOD","Shirley's Ice Cream","Mobile caterer","7846","","","","","BR6 ","5","fhrs_5_en-gb","","27 April 2012","505","Bromley","http://www.bromley.gov.uk","food@bromley.gov.uk","555","FHRS","false","",""
"196","912639","PI/000040479","Showtime Ice Cream","Mobile caterer","7846","","","","","BN13","5","fhrs_5_en-gb","","27 June 2019","329","Worthing","http://www.adur-worthing.gov.uk","publichealth.regulation@adur-worthing.gov.uk","555","FHRS","false","",""
"197","692130","PI/000155236","Simpsons Ice Cream","Mobile caterer","7846","","","","","ME2 ","5","fhrs_5_en-gb","","05 June 2017","896","Medway","http://www.medway.gov.uk/","foodandsafety@medway.gov.uk","000","FHRS","false","",""
"198","996785","87524","SJ's Ice Cream Trike","Mobile caterer","7846","","","","","BH21","5","fhrs_5_en-gb","","19 July 2017","085","Dorset","https://www.dorsetcouncil.gov.uk/","envhealthteamb@dorsetcouncil.gov.uk","050","FHRS","false","",""
"199","875175","44223","Soft Whip Ice Cream","Mobile caterer","7846","","","","","SL1 ","5","fhrs_5_en-gb","","22 March 2018","885","Slough","http://www.slough.gov.uk","foodandsafety@slough.gov.uk","000","FHRS","false","",""
"200","185344","R131GL2BAR/1","Southam Ice Cream","Mobile caterer","7846","","","","","LE3 ","5","fhrs_5_en-gb","","05 May 2016","209","Blaby","http://www.blaby.gov.uk","environmental.health@blaby.gov.uk","055","FHRS","false","",""
"201","1070092","158704","Spikes Ice Cream KD56KGX","Mobile caterer","7846","BL3 2DZ","BL3 2DZ","Bolton","","BL3 2DZ","5","fhrs_5_en-gb","","15 May 2019","403","Bolton","http://www.bolton.gov.uk","environmental.health@bolton.gov.uk","005","FHRS","false","-2.42415553.5611572",""
"202","948404","PI/000043760","Stonecold ice cream","Mobile caterer","7846","","","","","BA5 ","5","fhrs_5_en-gb","","09 January 2017","281","Mendip","http://www.mendip.gov.uk","env-health@mendip.gov.uk","500","FHRS","false","",""
"203","954663","F/17/00027/COM","Storkies Ice Cream","Mobile caterer","7846","","","","","","5","fhrs_5_en-gb","","13 March 2017","126","Forest of Dean","http://www.fdean.gov.uk","ERS@2020partnership.uk","555","FHRS","false","",""
"204","666632","7460","Styles Ice Cream Van","Mobile caterer","7846","","89 Maple Drive","Burnham on Sea","","TA8 1DH","5","fhrs_5_en-gb","","10 April 2018","282","Sedgemoor","http://www.sedgemoor.gov.uk","environmental.services@sedgemoor.gov.uk","000","FHRS","false","-2.99756351.23061",""
"205","55762","12591","Sue's Post Ice Cream","Mobile caterer","7846","","Outside Town Centre","","Preston","","5","fhrs_5_en-gb","","22 August 2017","202","Preston","http://www.preston.gov.uk","info@preston.gov.uk","005","FHRS","false","-1.97485953.8108368",""
"206","1114139","PI/000224783","Sunflower Ice Cream","Mobile caterer","7846","","","","","IP31","5","fhrs_5_en-gb","","25 June 2018","298","West Suffolk","http://www.westsuffolk.gov.uk","food&safety@westsuffolk.gov.uk","000","FHRS","false","",""
"207","253739","10/00049/FOOD","Super Softee Ice Cream","Mobile caterer","7846","","","","","SN2 ","5","fhrs_5_en-gb","","14 June 2017","881","Swindon","http://www.swindon.gov.uk/","foodhealth&safety@swindon.gov.uk","505","FHRS","false","",""
"208","405775","35616","Supersoft Ice Cream","Mobile caterer","7846","","","","","M32 ","5","fhrs_5_en-gb","","27 April 2018","431","Trafford","http://www.trafford.gov.uk","environmental.health@trafford.gov.uk","555","FHRS","false","",""
"209","923030","25589","Susans Ice Cream Tricycle","Mobile caterer","7846","","","","","LA22","5","fhrs_5_en-gb","","12 October 2016","060","South Lakeland","http://www.southlakeland.gov.uk","publicprotection@southlakeland.gov.uk","000","FHRS","false","",""
"210","611504","05/00019/FOOD","Tendring Ice Cream","Mobile caterer","7846","","","","","CO15","5","fhrs_5_en-gb","","05 July 2012","120","Tendring","http://www.tendringdc.gov.uk/","fhsadmin@tendringdc.gov.uk","000","FHRS","false","",""
"211","865498","500326","The Ice Cream Bicycle","Mobile caterer","7846","1 Ffordd Y Bedol","","Aberporth","Ceredigion","SA43 2ET","5","fhrs_5_en-gb","","07 June 2016","557","Ceredigion","http://www.ceredigion.gov.uk/","envhealth@ceredigion.gov.uk","005","FHRS","false","-4.53896352.1315956",""
"212","692419","14/00144/COMM","The Ice Cream Bike","Mobile caterer","7846","Private address: registered with Reigate & Banstead local authority","","","","RH6","5","fhrs_5_en-gb","","29 September 2017","309","Reigate and Banstead","http://www.reigate-banstead.gov.uk/","food.safety@reigate-banstead.gov.uk","000","FHRS","false","",""
"213","1078061","705479","The Ice Cream Boat","Mobile caterer","7846","31 Palace Avenue","","Rhyl","Denbighshire","LL18 1HS","5","fhrs_5_en-gb","","16 August 2018","559","Denbighshire","http://www.denbighshire.gov.uk/","envhealth@denbighshire.gov.uk","000","FHRS","false","-3.500623753.3172073",""
"214","1110762","A21KNS7STA/1","The Ice Cream Box","Mobile caterer","7846","","7 Station Road","Nailsea","Bristol North Somerset","BS48 4PD","5","fhrs_5_en-gb","","12 July 2017","858","North Somerset","http://www.n-somerset.gov.uk","foodandsafety@n-somerset.gov.uk","055","FHRS","false","-2.75235451.42581",""
"215","744445","PI/000099708","The Ice Cream Cab","Mobile caterer","7846","","","","","SG9 ","5","fhrs_5_en-gb","","20 January 2016","157","East Hertfordshire","http://www.eastherts.gov.uk","environmental.health@eastherts.gov.uk","","FHRS","false","",""
"216","582640","19528","The Ice Cream Cart","Mobile caterer","7846","","105 Hardwick Road","Eynesbury","St Neots","PE19 2UG","5","fhrs_5_en-gb","","08 September 2016","030","Huntingdonshire","http://www.huntingdonshire.gov.uk","food@huntingdonshire.gov.uk","505","FHRS","false","-0.27017452.2193756",""
"217","43422","1057828","The Ice Cream Experience","Mobile caterer","7846","","","","","M23 ","5","fhrs_5_en-gb","","13 April 2011","415","Manchester","http://www.manchester.gov.uk","envhealth@manchester.gov.uk","555","FHRS","false","",""
"218","1046825","6475","The Ice Cream Trike","Mobile caterer","7846","","","","","DT7 ","5","fhrs_5_en-gb","","11 April 2018","085","Dorset","https://www.dorsetcouncil.gov.uk/","envhealthteamb@dorsetcouncil.gov.uk","050","FHRS","false","",""
"219","1025307","44387","Thompsons Ice Cream","Mobile caterer","7846","","","","","E4 7","5","fhrs_5_en-gb","","03 January 2018","531","Waltham Forest","http://www.walthamforest.gov.uk","environmentalhealth@walthamforest.gov.uk","005","FHRS","false","",""
"220","336887","PI/000005595","Tonibell Ice Cream","Mobile caterer","7846","","","","","SG12","5","fhrs_5_en-gb","","11 January 2018","157","East Hertfordshire","http://www.eastherts.gov.uk","environmental.health@eastherts.gov.uk","050","FHRS","false","",""
"221","956380","3017","Tony's Ice Cream","Mobile caterer","7846","","","","","NG4 ","5","fhrs_5_en-gb","","21 March 2019","262","Gedling","http://www.gedling.gov.uk/","foodsafety@gedling.gov.uk","000","FHRS","false","",""
"222","995857","4178","TRACEY ICE CREAM","Mobile caterer","7846","Manor Farm The Batch","","Poyntington","Dorset","DT9 4LF","5","fhrs_5_en-gb","","25 June 2019","085","Dorset","https://www.dorsetcouncil.gov.uk/","envhealthteamb@dorsetcouncil.gov.uk","555","FHRS","false","-2.50027950.97894",""
"223","911820","16/00197/FOOD","Traditional Ice Cream","Mobile caterer","7846","St Maxime","9 Penny Lane","Southbourne","Emsworth","PO10 8HE","5","fhrs_5_en-gb","","03 May 2017","325","Chichester","http://www.chichester.gov.uk","environmentalhealth@chichester.gov.uk","005","FHRS","false","-0.92240550.8471756",""
"224","174577","PI/000029501","Trillo Ice Cream Van","Mobile caterer","7846","Spring Hill","Whitby","North Yorkshire","","YO21 1EB","5","fhrs_5_en-gb","","25 July 2018","255","Scarborough","http://www.scarborough.gov.uk/home/business-licensing-and-grants/food-hygiene","","000","FHRS","false","-0.61792954.4843674",""
"225","1111481","223537","Trixie Ice Cream Tricycle","Mobile caterer","7846","","","","","HR8 ","5","fhrs_5_en-gb","","09 June 2019","895","Herefordshire","http://www.herefordshire.gov.uk/","info@herefordshire.gov.uk","555","FHRS","false","",""
"226","317169","PI/000119544","Twin Top Ice Cream","Mobile caterer","7846","","","","","N9 9","5","fhrs_5_en-gb","","21 March 2017","510","Enfield","http://www.enfield.gov.uk/","environmentalhealth@enfield.gov.uk","505","FHRS","false","",""
"227","669648","PI/000027431","V&G Ice Cream","Mobile caterer","7846","","","","","SM4 ","5","fhrs_5_en-gb","","09 April 2018","524","Merton","http://www.merton.gov.uk","EHCommercial@merton.gov.uk","005","FHRS","false","",""
"228","1042016","71757","Victorian Ice Cream","Mobile caterer","7846","","Private Address","Kingston Upon Hull","","HU8","5","fhrs_5_en-gb","","02 March 2018","866","Hull City","http://www.hull.gov.uk","foodandhealth&safety@hullcc.gov.uk","000","FHRS","false","-0.29950253.77069",""
"229","526804","PI/000100746","Vitalina's Ice Cream","Mobile caterer","7846","Unit 23B","Fysh House Farm","Cuckoo Hill","Bures St Mary","CO8 5LD","5","fhrs_5_en-gb","","16 October 2013","297","Babergh","http://www.babergh.gov.uk/","foodsafety@baberghmidsuffolk.gov.uk","000","FHRS","false","0.78541551.9752464",""
"230","564280","615","Vito's Ice Cream Trolley","Mobile caterer","7846","","","","","PE27","5","fhrs_5_en-gb","","12 March 2019","030","Huntingdonshire","http://www.huntingdonshire.gov.uk","food@huntingdonshire.gov.uk","555","FHRS","false","",""
"231","331849","154854","Walls Ice Cream","Mobile caterer","7846","","","","","","5","fhrs_5_en-gb","","20 February 2018","422","Salford","http://www.salford.gov.uk/envhealth.htm","environmentalhealth@salford.gov.uk","505","FHRS","false","",""
"232","1065145","18/00041/FOOD","Warrens Ice Cream","Mobile caterer","7846","Unit 9 Carlton Commerce Centre","Dukes Road","Southampton","","SO14 0SQ","5","fhrs_5_en-gb","","14 June 2018","877","Southampton","http://www.southampton.gov.uk","hygiene.rating@southampton.gov.uk","555","FHRS","false","-1.3932052950.9195023",""
"233","1040980","18/00035/MIXED","Welsh Ice Cream Trike","Mobile caterer","7846","Mobile Vehicle Trading In Newport South Wales","","","","","5","fhrs_5_en-gb","","13 February 2018","564","Newport","http://www.newport.gov.uk","environmental.health@newport.gov.uk","000","FHRS","false","-2.988351.59108",""
"234","992321","4636","Wessex Ice Cream Company","Mobile caterer","7846","","","","","DT4 ","5","fhrs_5_en-gb","","17 June 2016","085","Dorset","https://www.dorsetcouncil.gov.uk/","envhealthteamb@dorsetcouncil.gov.uk","555","FHRS","false","",""
"235","456335","12/00209/MOB","Whitby Ice Cream Company","Mobile caterer","7846","42 Stakesby Road","Whitby","North Yorkshire","","YO21 1HS","5","fhrs_5_en-gb","","24 August 2017","255","Scarborough","http://www.scarborough.gov.uk/home/business-licensing-and-grants/food-hygiene","","000","FHRS","false","-0.63345254.4863968",""
"236","1158044","220205","Williams Ice Cream","Mobile caterer","7846","","","","","PL5 ","5","fhrs_5_en-gb","","04 July 2019","891","Plymouth City","http://www.plymouth.gov.uk","public.protection@plymouth.gov.uk","055","FHRS","false","",""
"237","740041","51616","Willows Ice Cream","Mobile caterer","7846","","","","","PO3 ","5","fhrs_5_en-gb","","14 July 2015","876","Portsmouth","http://www.portsmouth.gov.uk","public.protection@portsmouthcc.gov.uk","555","FHRS","false","",""
"238","520158","49971","Yummy Ice Cream","Mobile caterer","7846","","","","","UB8 ","5","fhrs_5_en-gb","","24 April 2017","517","Hillingdon","http://www.hillingdon.gov.uk/foodsafety","environmentalhealthcp@hillingdon.gov.uk","505","FHRS","false","",""
"239","545778","2144","Anglesey Ice Cream","Mobile caterer","7846","","11 Upper Park Street","Holyhead","Isle Of Anglesey","LL65 1HA","4","fhrs_4_en-gb","","15 November 2018","551","Anglesey","http://www.ynysmon.gov.uk","iechydyramgylchedd@ynysmon.gov.uk","0010","FHRS","false","-4.63365853.3144836",""
"240","1034017","PI000179420","Candy Ice Cream","Mobile caterer","7846","","","","","UB5 ","4","fhrs_4_en-gb","","05 August 2015","509","Ealing","https://www.ealing.gov.uk/info/201150/food_hygiene_and_safety","foodsafety@ealing.gov.uk","5510","FHRS","false","",""
"241","926276","MIXED/1410/15","Cuffs Ice Cream","Mobile caterer","7846","STREET RECORD Chorley Road Walton-Le-Dale Lancashire","","","","","4","fhrs_4_en-gb","","06 March 2018","205","South Ribble","http://www.southribble.gov.uk","envhealth@southribble.gov.uk","1055","FHRS","false","",""
"242","660559","311008","Freddy's Ice Cream","Mobile caterer","7846","21 Woodcourt","Newtown","Wigan","","WN3 5BZ","4","fhrs_4_en-gb","","22 April 2014","434","Wigan","http://www.wigan.gov.uk/","comm@wigan.gov.uk","5510","FHRS","false","-2.6369853.5372047",""
"243","759041","CP15_000269","Ice Cream Kiosk","Mobile caterer","7846","","","","","EX23","4","fhrs_4_en-gb","","01 August 2017","705","Cornwall","http://www.cornwall.gov.uk","publicprotection@cornwall.gov.uk","5510","FHRS","false","",""
"244","868611","62971","Ice Cream Rescue","Mobile caterer","7846","Castle Museum","The Castle","York","","YO1 9RY","4","fhrs_4_en-gb","","03 July 2018","868","York","http://www.york.gov.uk","public.protection@york.gov.uk","5010","FHRS","false","-1.07828453.9555931",""
"245","316361","PI/000038241","Ice Cream Van","Mobile caterer","7846","","","","","EN1 ","4","fhrs_4_en-gb","","13 January 2017","510","Enfield","http://www.enfield.gov.uk/","environmentalhealth@enfield.gov.uk","5010","FHRS","false","",""
"246","449326","PI/000170803","Ice Cream Van","Mobile caterer","7846","","","","","EN1 ","4","fhrs_4_en-gb","","01 May 2019","510","Enfield","http://www.enfield.gov.uk/","environmentalhealth@enfield.gov.uk","5010","FHRS","false","",""
"247","1000084","700791","Joe's Ice Cream","Mobile caterer","7846","15 Templepatrick Road","Skilganaban","","Antrim","BT39 9TX","4","fhrs_4_en-gb","","05 October 2017","801","Antrim and Newtownabbey","http://www.antrimandnewtownabbey.gov.uk","envhealth@antrimandnewtownabbey.gov.uk","5105","FHRS","false","-5.97294954.76007",""
"248","849536","16/00081/FOOD","John Windle Ice Cream","Mobile caterer","7846","","","","","L36 ","4","fhrs_4_en-gb","","09 March 2018","412","Knowsley","http://www.knowsley.gov.uk","environmentalhealth@knowsley.gov.uk","5105","FHRS","false","",""
"249","703554","PI/000011855","Londons Tastiest Ice Cream","Mobile caterer","7846","","","","","N22 ","4","fhrs_4_en-gb","","19 August 2014","514","Haringey","http://www.haringey.gov.uk","frontline@haringey.gov.uk","1005","FHRS","false","",""
"250","746643","PI/000009849","Mannys Ice Cream","Mobile caterer","7846","","","","","WS1 ","4","fhrs_4_en-gb","","03 June 2016","433","Walsall","http://www.walsall.gov.uk/index/environment/food_production_and_quality.htm","environmentalhealth@walsall.gov.uk","5100","FHRS","false","",""
"251","963866","17/00147/COMM","MiMi Ice Cream","Mobile caterer","7846","Auto Salvage","Old Mill Morda","Morda","Oswestry","SY10 9PD","4","fhrs_4_en-gb","","24 April 2017","708","Shropshire","http://www.shropshire.gov.uk/foodhygienescheme","food@shropshire.gov.uk","0510","FHRS","false","-3.05856752.84494",""
"252","419359","105574","Mr Angelo Ice Cream","Mobile caterer","7846","","Bridge Street","","Warrington","WA4 1BJ","4","fhrs_4_en-gb","","26 March 2013","890","Warrington","http://www.warrington.gov.uk","environmental.health@warrington.gov.uk","0010","FHRS","false","-2.58384253.3828163",""
"253","1089419","701158","Mr Georges Ice Cream","Mobile caterer","7846","66 Templepatrick Road","Ballyclare","","Antrim","BT39 9AL","4","fhrs_4_en-gb","","31 October 2018","801","Antrim and Newtownabbey","http://www.antrimandnewtownabbey.gov.uk","envhealth@antrimandnewtownabbey.gov.uk","0105","FHRS","false","-5.97925954.75441",""
"254","317033","PI/000104090","Musti Ice Cream C/o","Mobile caterer","7846","","","","","N9 8","4","fhrs_4_en-gb","","06 March 2017","510","Enfield","http://www.enfield.gov.uk/","environmentalhealth@enfield.gov.uk","5010","FHRS","false","",""
"255","800301","PI/000419830","Nh Ice Cream Sales","Mobile caterer","7846","","","","","B45 ","4","fhrs_4_en-gb","","06 July 2016","402","Birmingham","http://www.birmingham.gov.uk/environmental-health","nick.lowe@birmingham.gov.uk","0105","FHRS","false","",""
"256","185354","R13GBR20RA/1","Oliveti Mobile Ice Cream","Mobile caterer","7846","","","","","LE3 ","4","fhrs_4_en-gb","","21 March 2018","209","Blaby","http://www.blaby.gov.uk","environmental.health@blaby.gov.uk","1055","FHRS","false","",""
"257","193439","38923","Penna's Ice Cream","Mobile caterer","7846","","Private Address","Kingston Upon Hull","","HU6","4","fhrs_4_en-gb","","09 March 2018","866","Hull City","http://www.hull.gov.uk","foodandhealth&safety@hullcc.gov.uk","5510","FHRS","false","-0.36925153.783474",""
"258","998047","321298","Pepe's Ice Cream Van","Mobile caterer","7846","","","","","WA10","4","fhrs_4_en-gb","","05 December 2017","434","Wigan","http://www.wigan.gov.uk/","comm@wigan.gov.uk","5510","FHRS","false","",""
"259","1151036","PI/000184364","Peter's Ice Cream","Mobile caterer","7846","Needham Lake","Coddenham Road","Needham Market","IPSWICH","","4","fhrs_4_en-gb","","22 May 2019","300","Mid Suffolk","http://www.midsuffolk.gov.uk/","foodsafety@baberghmidsuffolk.gov.uk","5105","FHRS","false","1.0793484452.1509132",""
"260","871807","799642","Pol Ice Cream","Mobile caterer","7846","","35 Hermitage Road","Manchester","","M8 5SW","4","fhrs_4_en-gb","","14 May 2018","415","Manchester","http://www.manchester.gov.uk","envhealth@manchester.gov.uk","0010","FHRS","false","-2.23882853.51629",""
"261","106134","36769","Purdy's Ice Cream","Mobile caterer","7846","","Edisford Road","Clitheroe","Lancashire","BB7 3LA","4","fhrs_4_en-gb","","25 January 2018","203","Ribble Valley","http://www.ribblevalley.gov.uk","environmental.health@ribblevalley.gov.uk","10010","FHRS","false","-2.41205453.8686752",""
"262","705655","97369","Rossi's Ice Cream Van","Mobile caterer","7846","","","","","SL2 ","4","fhrs_4_en-gb","","01 August 2018","885","Slough","http://www.slough.gov.uk","foodandsafety@slough.gov.uk","5010","FHRS","false","",""
"263","47138","11/00107/MOB","Ryedale Ice Cream","Mobile caterer","7846","20 Plane Tree Way","Filey","North Yorkshire","","YO14 9PA","4","fhrs_4_en-gb","","13 August 2017","255","Scarborough","http://www.scarborough.gov.uk/home/business-licensing-and-grants/food-hygiene","","0510","FHRS","false","-0.30122354.21593",""
"264","1070525","18/00232/CP","Solent Ice Cream Boat","Mobile caterer","7846","","","","","PO33","4","fhrs_4_en-gb","","02 August 2018","867","Isle of Wight","http://www.iwight.com/eh","eh@iow.gov.uk","5510","FHRS","false","",""
"265","556127","120959","Valentines Ice Cream","Mobile caterer","7846","","18 Detuyll Street","Scunthorpe","North Lincolnshire","DN15 7LS","4","fhrs_4_en-gb","","22 May 2018","864","North Lincolnshire","http://www.northlincs.gov.uk/environment/environmentalhealth/food/food-safety/","food.safety@northlincs.gov.uk","5010","FHRS","false","-0.65750953.5975456",""
"266","1149093","8396","Wahidy Ice Cream Van","Mobile caterer","7846","","","","","UB3 ","4","fhrs_4_en-gb","","14 May 2019","517","Hillingdon","http://www.hillingdon.gov.uk/foodsafety","environmentalhealthcp@hillingdon.gov.uk","5510","FHRS","false","",""
"267","800429","15/00192/COMM","Whitby Ice Cream Company","Mobile caterer","7846","Abbey Farm","East Cliff","Whitby","North Yorkshire","YO22 4JR","4","fhrs_4_en-gb","","19 April 2018","255","Scarborough","http://www.scarborough.gov.uk/home/business-licensing-and-grants/food-hygiene","","1055","FHRS","false","-0.60627754.4888268",""
"268","737774","99003","4 U Ice Cream","Mobile caterer","7846","","","","","SY2 ","3","fhrs_3_en-gb","","10 August 2017","708","Shropshire","http://www.shropshire.gov.uk/foodhygienescheme","food@shropshire.gov.uk","10105","FHRS","false","",""
"269","521333","35206","Bernies Ice Cream","Mobile caterer","7846","","","","","NP4 ","3","fhrs_3_en-gb","","04 October 2018","569","Torfaen","http://www.torfaen.gov.uk/","commercial.services@torfaen.gov.uk","51010","FHRS","false","",""
"270","253729","05/00091/FOOD","Biage's Ice Cream","Mobile caterer","7846","","","","","","3","fhrs_3_en-gb","","20 December 2005","881","Swindon","http://www.swindon.gov.uk/","foodhealth&safety@swindon.gov.uk","101010","FHRS","false","",""
"271","465714","171828","Fiorelli Ice Cream","Mobile caterer","7846","","","","","SW18","3","fhrs_3_en-gb","","31 March 2016","532","Wandsworth","http://www.wandsworth.gov.uk","foodsafety@wandsworth.gov.uk","101010","FHRS","false","",""
"272","1051942","PI/000109824","Four Seasons Ice Cream","Mobile caterer","7846","","","","","HA2 ","3","fhrs_3_en-gb","","02 May 2018","515","Harrow","http://www.harrow.gov.uk","ehealth@harrow.gov.uk","101010","FHRS","false","",""
"273","912519","324496","Holdens Ice Cream Van","Mobile caterer","7846","School Lane","Haigh","Wigan","","WN2 1PE","3","fhrs_3_en-gb","","05 September 2016","434","Wigan","http://www.wigan.gov.uk/","comm@wigan.gov.uk","10510","FHRS","false","-2.6097253.5732727",""
"274","276255","PI/000017867","Ice Cream Van","Mobile caterer","7846","","","","","HA3 ","3","fhrs_3_en-gb","","22 August 2018","515","Harrow","http://www.harrow.gov.uk","ehealth@harrow.gov.uk","51010","FHRS","false","",""
"275","559107","77709","Ice Cream Van","Mobile caterer","7846","","","","","BH11","3","fhrs_3_en-gb","","05 July 2017","872","Bournemouth, Christchurch and Poole","http://www.bournemouth.gov.uk","foodandhealthandsafety@bournemouth.gov.uk","10105","FHRS","false","",""
"276","874543","PI/000059761","Kelleys Ice Cream","Mobile caterer","7846","","","","","IG10","3","fhrs_3_en-gb","","09 May 2016","115","Epping Forest","http://www.eppingforestdc.gov.uk","publichealth@eppingforestdc.gov.uk","10510","FHRS","false","",""
"277","575655","64049","Mr B's Ice Cream","Mobile caterer","7846","","","","","B68 ","3","fhrs_3_en-gb","","24 January 2013","423","Sandwell","http://www.sandwell.gov.uk/foodratings","ehts_enquiries@sandwell.gov.uk","10105","FHRS","false","",""
"278","163585","PI/000004951","Ports Ice Cream","Mobile caterer","7846","13 Bulverhythe Road","St Leonards-on-sea","East Sussex","","TN38 8AD","3","fhrs_3_en-gb","","15 June 2018","103","Hastings","http://www.hastings.gov.uk","fhrs@hastings.gov.uk","","FHRS","false","0.52756250.8505363",""
"279","547284","PI/000105323","Supersoft Ice Cream","Mobile caterer","7846","","","","","HA8 ","3","fhrs_3_en-gb","","13 February 2019","515","Harrow","http://www.harrow.gov.uk","ehealth@harrow.gov.uk","10510","FHRS","false","",""
"280","130058","61079","Whippy Ice Cream","Mobile caterer","7846","","","","","B67 ","3","fhrs_3_en-gb","","22 August 2013","423","Sandwell","http://www.sandwell.gov.uk/foodratings","ehts_enquiries@sandwell.gov.uk","10510","FHRS","false","",""
"281","976934","1669","CUBE Ice Cream Kiosk","Mobile caterer","7846","Durdle Door Holiday Park","","West Lulworth","Dorset","BH20 5PU","2","fhrs_2_en-gb","","18 July 2017","085","Dorset","https://www.dorsetcouncil.gov.uk/","envhealthteamb@dorsetcouncil.gov.uk","51510","FHRS","false","-2.3203550.7791519",""
"282","1049799","PI/000237369","Drifters Ice Cream","Mobile caterer","7846","","","","","DY5 ","1","fhrs_1_en-gb","","23 April 2018","409","Dudley","http://www.dudley.gov.uk","Food.DUE@dudley.gov.uk","101020","FHRS","false","",""
"283","936447","16/00010/COMM","Abuelo Ice Cream","Mobile caterer","7846","","","","","SS5 ","AwaitingInspection","fhrs_awaitinginspection_en-gb","","N/A","118","Rochford","http://www.rochford.gov.uk","customerservices@rochford.gov.uk","","FHRS","false","",""
"284","1046998","80446","Bills Ice Cream","Mobile caterer","7846","","","","","TS1 ","AwaitingInspection","fhrs_awaitinginspection_en-gb","","N/A","861","Middlesbrough","http://www.middlesbrough.gov.uk","EHTS@middlesbrough.gov.uk","","FHRS","false","",""
"285","1153452","19/00179/CP","Brians Ice Cream Van","Mobile caterer","7846","","","","","ME1 ","AwaitingInspection","fhrs_awaitinginspection_en-gb","","N/A","896","Medway","http://www.medway.gov.uk/","foodandsafety@medway.gov.uk","","FHRS","false","",""
"286","1026569","18/00013/COM","Cheeky Ice Cream","Mobile caterer","7846","","","","","WA6 ","AwaitingInspection","fhrs_awaitinginspection_en-gb","","N/A","704","Cheshire West and Chester","http://www.cheshirewestandchester.gov.uk","foodsafety@cheshirewestandchester.gov.uk","","FHRS","false","",""
"287","1052893","85598","DIY Ice Cream","Mobile caterer","7846","","22 Boscombe Road","Carbrooke","Norfolk","IP25 6JS","AwaitingInspection","fhrs_awaitinginspection_en-gb","","N/A","227","Breckland","http://www.breckland.gov.uk/","foodandhealth&safety@breckland.gov.uk","","FHRS","false","0.865809152.5693359",""
"288","890345","141475","Dodson's Ice Cream","Mobile caterer","7846","","8 Egerton Square","","Knutsford","WA16 6EY","AwaitingInspection","fhrs_awaitinginspection_en-gb","","N/A","703","Cheshire East","http://www.cheshireeast.gov.uk/","commercialservices@cheshireeast.gov.uk","","FHRS","false","-2.37308353.3055229",""
"289","710334","56008","Dodson's Ice Cream","Mobile caterer","7846","","Vehicle Reg D385 RUJ Trades at John Leigh Park","Oldfield Road","Altrincham","","AwaitingInspection","fhrs_awaitinginspection_en-gb","","N/A","431","Trafford","http://www.trafford.gov.uk","environmental.health@trafford.gov.uk","","FHRS","false","",""
"290","836986","14/00465/FOOD","Donatello's Ice Cream","Mobile caterer","7846","10 The Rise","Hopwood","Birmingham","","B48 7AP","AwaitingInspection","fhrs_awaitinginspection_en-gb","","N/A","145","Bromsgrove","http://www.worcsregservices.gov.uk","enquiries@worcsregservices.gov.uk","","FHRS","false","-1.95817452.3789139",""
"291","981030","12/00235/COMM","Donovans Ice Cream Van","Mobile caterer","7846","Riverside Walk","London","","","","AwaitingInspection","fhrs_awaitinginspection_en-gb","","N/A","522","Lambeth","http://www.lambeth.gov.uk","foodhealthandsafety@lambeth.gov.uk","","FHRS","false","-0.024851.37613",""
"292","1112531","19/00081/FOOD","Dylans Ice Cream","Mobile caterer","7846","Unit 1","Fernhurst Business Park","Henley Common","Fernhurst","GU27 3HB","AwaitingInspection","fhrs_awaitinginspection_en-gb","","N/A","325","Chichester","http://www.chichester.gov.uk","environmentalhealth@chichester.gov.uk","","FHRS","false","-0.7331151.03167",""
"293","1112818","19/00056/CP","Esteban's Ice Cream","Mobile caterer","7846","","","","","PO30","AwaitingInspection","fhrs_awaitinginspection_en-gb","","N/A","867","Isle of Wight","http://www.iwight.com/eh","eh@iow.gov.uk","","FHRS","false","",""
"294","837402","14/00727/FOOD","Ice Cream Van","Mobile caterer","7846","","","","","WR5 ","AwaitingInspection","fhrs_awaitinginspection_en-gb","","N/A","151","Worcester City","http://www.worcsregservices.gov.uk","enquiries@worcsregservices.gov.uk","","FHRS","false","",""
"295","899125","14/00025/COM","Morelli's Ice Cream","Mobile caterer","7846","","","","","SM5 ","AwaitingInspection","fhrs_awaitinginspection_en-gb","","N/A","529","Sutton","http://www.sutton.gov.uk","food.safety@sutton.gov.uk","","FHRS","false","",""
"296","1128804","100090381004","Mr Hippy Ice Cream","Mobile caterer","7846","","","","","SS8 ","AwaitingInspection","fhrs_awaitinginspection_en-gb","","N/A","112","Castle Point","http://www.castlepoint.gov.uk","environmentalhealth@castlepoint.gov.uk","","FHRS","false","",""
"297","1138447","PI/000077138","Nick Apps Ice Cream","Mobile caterer","7846","","","","","CT21","AwaitingInspection","fhrs_awaitinginspection_en-gb","","N/A","188","Folkestone and Hythe","http://www.folkestone-hythe.gov.uk","foodteam@folkestone-hythe.gov.uk","","FHRS","false","",""
"298","87733","22770","Ognissanti Ice Cream","Mobile caterer","7846","","","Bedford","","","AwaitingInspection","fhrs_awaitinginspection_en-gb","","N/A","701","Bedford","http://www.bedford.gov.uk","ehadmin@bedford.gov.uk","","FHRS","false","-0.4636952.13921",""
"299","987549","14/00185/MIXED","Shams Ice Cream Van","Mobile caterer","7846","","","","","BR1 ","AwaitingInspection","fhrs_awaitinginspection_en-gb","","N/A","505","Bromley","http://www.bromley.gov.uk","food@bromley.gov.uk","","FHRS","false","",""
"300","175791","PI/000033840","The Ice Cream Lady","Mobile caterer","7846","","","","","BN10","AwaitingInspection","fhrs_awaitinginspection_en-gb","","N/A","105","Lewes","http://www.lewes.gov.uk/","ehealth@lewes.gov.uk","","FHRS","false","",""
"301","83922","20706","Tracey's Ice Cream","Mobile caterer","7846","","","","","BA9 ","AwaitingInspection","fhrs_awaitinginspection_en-gb","","N/A","283","South Somerset","http://www.southsomerset.gov.uk/food","food.safety@southsomerset.gov.uk","","FHRS","false","",""
"302","932969","15/00062/FOOD","Valentina Ice Cream","Mobile caterer","7846","","","","","HP11","AwaitingInspection","fhrs_awaitinginspection_en-gb","","N/A","025","Wycombe","http://www.wycombe.gov.uk","Food.Ratings@wycombe.gov.uk","","FHRS","false","",""
"303","233447","08/00070/MX","Clovelly Ice Cream","Mobile caterer","7846","","","","","EX39","Exempt","fhrs_exempt_en-gb","","N/A","080","Torridge","http://www.torridge.gov.uk/food","foodandsafety@torridge.gov.uk","","FHRS","false","",""
"304","650059","5333","Dylon's Ice Cream","Mobile caterer","7846","Dylons Ice Cream High Street High Street","","Guildford","Surrey","","Exempt","fhrs_exempt_en-gb","","N/A","307","Guildford","http://www.guildford.gov.uk","HCCS@guildford.gov.uk","","FHRS","false","",""
"305","630445","PI/000211813","Garbanzo's Ice Cream Hire","Mobile caterer","7846","","","","","BA13","Exempt","fhrs_exempt_en-gb","","N/A","709","Wiltshire","http://www.wiltshire.gov.uk","publicprotectioneast@wiltshire.gov.uk","","FHRS","false","",""
"306","683147","PI/000225269","Happy Days Ice Cream","Mobile caterer","7846","","","","","BA12","Exempt","fhrs_exempt_en-gb","","N/A","709","Wiltshire","http://www.wiltshire.gov.uk","publicprotectioneast@wiltshire.gov.uk","","FHRS","false","",""
"307","906606","PI/000301787","Little Urchins Ice Cream","Mobile caterer","7846","28 Woodcock Industrial Estate","Warminster","Wiltshire","","BA12 9DX","Exempt","fhrs_exempt_en-gb","","N/A","709","Wiltshire","http://www.wiltshire.gov.uk","publicprotectioneast@wiltshire.gov.uk","","FHRS","false","-2.16597151.20394",""
"308","735775","PI/000172832","MA Ice Cream","Mobile caterer","7846","","","","","SN12","Exempt","fhrs_exempt_en-gb","","N/A","709","Wiltshire","http://www.wiltshire.gov.uk","publicprotectioneast@wiltshire.gov.uk","","FHRS","false","",""
"309","154764","CP2344","Orchard Ice Cream Sales","Mobile caterer","7846","Lukes Orchard","Far Green","Coaley","Dursley","GL11 5EL","Exempt","fhrs_exempt_en-gb","","N/A","128","Stroud","http://www.stroud.gov.uk","environmental.health@stroud.gov.uk","","FHRS","false","-2.32183351.70294",""
"310","263006","PI/000093949","South Coast Ice Cream","Mobile caterer","7846","","","","","SP3 ","Exempt","fhrs_exempt_en-gb","","N/A","709","Wiltshire","http://www.wiltshire.gov.uk","publicprotectioneast@wiltshire.gov.uk","","FHRS","false","",""
"311","179538","PI/000058153","Toni's Ice Cream","Mobile caterer","7846","","","","","NG22","Exempt","fhrs_exempt_en-gb","","N/A","260","Bassetlaw","http://www.bassetlaw.gov.uk","environmental.health@bassetlaw.gov.uk","","FHRS","false","",""
"312","1157208","A21KBNKNIG/1","Mr Mikey Ice Cream / Millards Ice Cream","Mobile caterer","7846","Deer Leep Farm","Knightcott","Banwell","Weston Super Mare","BS29 6HS","5","fhrs_5_en-gb","","14 June 2019","858","North Somerset","http://www.n-somerset.gov.uk","foodandsafety@n-somerset.gov.uk","000","FHRS","false","-2.8860451.3291969",""
"313","982309","88094","Soni Ice Cream Ice Cream Vehicle G917 PBV","Mobile caterer","7846","","","","","WA7 ","5","fhrs_5_en-gb","","07 June 2017","889","Halton","http://www.halton.gov.uk","FSA_Enforcement@halton.gov.uk","005","FHRS","false","",""
"314","894003","161666","1st Class Traditional Ice Cream","Mobile caterer","7846","","","","","","5","fhrs_5_en-gb","","12 July 2019","422","Salford","http://www.salford.gov.uk/envhealth.htm","environmentalhealth@salford.gov.uk","555","FHRS","false","",""
"315","1030456","92255","Bens Ice Cream of Tavistock","Mobile caterer","7846","","","","","PL20","5","fhrs_5_en-gb","","06 February 2018","081","West Devon","http://www.westdevon.gov.uk","environmental.health@swdevon.gov.uk","000","FHRS","false","",""
"316","464635","66427","Britton's Ice Cream (Mobile Van)","Mobile caterer","7846","Britton's Ice Cream (Mobile Van)","25 Falcon Drive","Gretna","","DG16 5JU","5","fhrs_5_en-gb","","07 December 2017","057","Carlisle City","http://www.carlisle.gov.uk","EnvironmentalHealth@carlisle.gov.uk","000","FHRS","false","-3.06056754.9943466",""
"317","140058","76009","Carnival Ice Cream Van 1","Mobile caterer","7846","","","","","BN23","5","fhrs_5_en-gb","","15 August 2018","102","Eastbourne","http://www.eastbourne.gov.uk/foodratings","Customerfirst@eastbourne.gov.uk","500","FHRS","false","",""
"318","356954","81928","Carnival Ice Cream Van 2","Mobile caterer","7846","","","","","BN23","5","fhrs_5_en-gb","","15 August 2018","102","Eastbourne","http://www.eastbourne.gov.uk/foodratings","Customerfirst@eastbourne.gov.uk","500","FHRS","false","",""
"319","356955","81929","Carnival Ice Cream Van 3","Mobile caterer","7846","","","","","BN23","5","fhrs_5_en-gb","","15 August 2018","102","Eastbourne","http://www.eastbourne.gov.uk/foodratings","Customerfirst@eastbourne.gov.uk","500","FHRS","false","",""
"320","685697","83531","Carnival Ice Cream Van 4","Mobile caterer","7846","","","","","BN23","5","fhrs_5_en-gb","","15 August 2018","102","Eastbourne","http://www.eastbourne.gov.uk/foodratings","Customerfirst@eastbourne.gov.uk","500","FHRS","false","",""
"321","908717","160967","Carnival Ice Cream Van 5","Mobile caterer","7846","","","","","BN23","5","fhrs_5_en-gb","","15 August 2018","102","Eastbourne","http://www.eastbourne.gov.uk/foodratings","Customerfirst@eastbourne.gov.uk","500","FHRS","false","",""
"322","918187","160993","Carnival Ice Cream Van 6","Mobile caterer","7846","","","","","BN23","5","fhrs_5_en-gb","","15 August 2018","102","Eastbourne","http://www.eastbourne.gov.uk/foodratings","Customerfirst@eastbourne.gov.uk","500","FHRS","false","",""
"323","239417","PI/000001054","Dayal Ice Cream (R961 VVW)","Mobile caterer","7846","","","","","CV6 ","5","fhrs_5_en-gb","","20 August 2014","407","Coventry","http://www.coventry.gov.uk","ehcommercial@coventry.gov.uk","000","FHRS","false","",""
"324","865856","68040/0065/0/000","Donovans Ice Cream Van 1","Mobile caterer","7846","65 Grangewood Street","East Ham","London","","E6 1HB","5","fhrs_5_en-gb","","02 March 2019","525","Newham","https://www.newham.gov.uk","food@newham.gov.uk","000","FHRS","false","0.0439951.53506",""
"325","865853","16/00254/FOOD","Donovans Ice Cream Van 2","Mobile caterer","7846","65 Grangewood Street","East Ham","London","","E6 1HB","5","fhrs_5_en-gb","","02 March 2019","525","Newham","https://www.newham.gov.uk","food@newham.gov.uk","000","FHRS","false","0.0439951.53506",""
"326","975348","127348","Dons Ice Cream (CE59 MSY)","Mobile caterer","7846","","","","","DN15","5","fhrs_5_en-gb","","03 May 2017","864","North Lincolnshire","http://www.northlincs.gov.uk/environment/environmentalhealth/food/food-safety/","food.safety@northlincs.gov.uk","505","FHRS","false","",""
"327","579480","10/00102/COMM","Dreamy Cow Farmhouse Ice Cream","Mobile caterer","7846","Culloden Farm","Ashby Road","Twycross","Atherstone","CV9 3QE","5","fhrs_5_en-gb","","25 June 2016","212","Hinckley and Bosworth","http://www.hinckley-bosworth.gov.uk","esadmin@hinckley-bosworth.gov.uk","055","FHRS","false","-1.52223552.6575661",""
"328","80905","196729","Dutchies Traditional Ice Cream Trike","Mobile caterer","7846","Linden","Middleton Road","Oswestry","Shropshire","SY11 2PR","5","fhrs_5_en-gb","","16 June 2011","708","Shropshire","http://www.shropshire.gov.uk/foodhygienescheme","food@shropshire.gov.uk","000","FHRS","false","-3.04635552.85882",""
"329","966847","754293","Express Ice Cream Ltd","Mobile caterer","7846","Garn Farm Port Road","","Wenvoe","Vale Of Glamorgan","CF5 6BE","5","fhrs_5_en-gb","","14 February 2019","570","Vale of Glamorgan","http://www.valeofglamorgan.gov.uk","foodsafetyteam@valeofglamorgan.gov.uk","055","FHRS","false","-3.26776951.4371071",""
"330","591934","23014","Frosty'S Ice Cream (S99 Fro)","Mobile caterer","7846","Ancorage House","13 Ffordd Nantlle","Talysarn","Caernarfon","LL54 6AE","5","fhrs_5_en-gb","","14 September 2017","554","Gwynedd","http://www.gwynedd.gov.uk","BwydIechydaDiogelwch@gwynedd.gov.uk","005","FHRS","false","-4.25089253.0543327",""
"331","285724","16138","GB Events Ice Cream Mobiles","Mobile caterer","7846","1 South Nelson Road","South Nelson Industrial Estate","Cramlington","","NE23 1WF","5","fhrs_5_en-gb","","06 March 2019","707","Northumberland","http://www.northumberland.gov.uk","public.protection@northumberland.gov.uk","000","FHRS","false","-1.60731555.09501",""
"332","782283","59837","Grandpa Greene's Luxury Ice Cream","Mobile caterer","7846","Trailer 2","CA15 UYY","","","","5","fhrs_5_en-gb","","09 July 2018","418","Oldham","https://www.oldham.gov.uk","FHRS@oldham.gov.uk","000","FHRS","false","",""
"333","1052065","18/00128/CP","Honour's Ice Cream HD17 0UR","Mobile caterer","7846","","","","","SE28","5","fhrs_5_en-gb","","10 August 2018","503","Bexley","http://www.bexley.gov.uk","food.safety@bexley.gov.uk","000","FHRS","false","",""
"334","1052066","18/00129/CP","Honour's Ice Cream VK56 DNX","Mobile caterer","7846","","","","","SE28","5","fhrs_5_en-gb","","10 August 2018","503","Bexley","http://www.bexley.gov.uk","food.safety@bexley.gov.uk","000","FHRS","false","",""
"335","894164","16/00043/CPREM","Ice Cream Express F721 EKL","Mobile caterer","7846","","","","","CM0 ","5","fhrs_5_en-gb","","21 June 2016","117","Maldon","http://www.maldon.gov.uk","environmentservices.request@maldon.gov.uk","005","FHRS","false","",""
"336","836122","601312","Ice Cream Happiness (K99 WKD)","Mobile caterer","7846","","","","","BT54","5","fhrs_5_en-gb","","25 July 2018","805","Causeway Coast and Glens","http://www.causewaycoastandglens.gov.uk","food@causewaycoastandglens.gov.uk","000","FHRS","false","",""
"337","693700","PI/000146295","Ice Cream Time (NG06 LFW)","Mobile caterer","7846","","","","","N15 ","5","fhrs_5_en-gb","","18 July 2014","514","Haringey","http://www.haringey.gov.uk","frontline@haringey.gov.uk","555","FHRS","false","",""
"338","414946","12/00080/COM","Ice Cream Van  WF04 YZU","Mobile caterer","7846","","","","","SK14","5","fhrs_5_en-gb","","23 April 2015","430","Tameside","http://www.tameside.gov.uk","environmentalhealth@tameside.gov.uk","000","FHRS","false","",""
"339","166730","PI/000010065","Ice Cream Van - Mobile","Mobile caterer","7846","Mobile Van - DK08 Ync","Wrenn School","Doddington Road","Wellingborough","NN8 2JJ","5","fhrs_5_en-gb","","31 December 2013","241","Wellingborough","http://www.wellingborough.gov.uk","HealthProtection@wellingborough.gov.uk","505","FHRS","false","-0.6952752.2960243",""
"340","364888","57607","Ice cream van dg02 cen","Mobile caterer","7846","Potters Fields Park","","Potters Fields","London","SE1 2AA","5","fhrs_5_en-gb","","08 November 2017","528","Southwark","http://www.southwark.gov.uk/","food@southwark.gov.uk","555","FHRS","false","-0.07870551.5048637",""
"341","187658","PI/000049784","Ice Cream Van G911 NLW","Mobile caterer","7846","","","","","EN8 ","5","fhrs_5_en-gb","","22 October 2018","155","Broxbourne","http://www.broxbourne.gov.uk","envhealth@broxbourne.gov.uk","555","FHRS","false","",""
"342","1020290","PI/000078625","Ice Cream Van K239 JGU","Mobile caterer","7846","Unit 6","Depot","Masons Road","Dover","CT17 0EZ","5","fhrs_5_en-gb","","06 December 2017","182","Dover","http://www.dover.gov.uk/","envhealth@dover.gov.uk","555","FHRS","false","1.29353651.1321945",""
"343","1029184","14/00057/COMM","Ice Cream Van K335 AOJ","Mobile caterer","7846","","","","","BL3 ","5","fhrs_5_en-gb","","27 June 2014","197","Chorley","http://www.chorley.gov.uk/foodratings","contact@chorley.gov.uk","555","FHRS","false","",""
"344","878744","15/00083/COMM","Ice Cream Van W437 SNT","Mobile caterer","7846","","","","","BL3 ","5","fhrs_5_en-gb","","09 July 2015","197","Chorley","http://www.chorley.gov.uk/foodratings","contact@chorley.gov.uk","555","FHRS","false","",""
"345","942999","17/00007/COMM","Ice Cream Van: T239 AOH","Mobile caterer","7846","","","","","BL3 ","5","fhrs_5_en-gb","","22 January 2017","197","Chorley","http://www.chorley.gov.uk/foodratings","contact@chorley.gov.uk","555","FHRS","false","",""
"346","255122","PI/000104535","Jaz' May Soft Ice Cream","Mobile caterer","7846","","","","","SE13","5","fhrs_5_en-gb","","02 August 2018","523","Lewisham","http://www.lewisham.gov.uk/myservices/business/food-safety/Pages/default.aspx","david.edwards@lewisham.gov.uk","000","FHRS","false","",""
"347","938734","PI/000180627","Joes Super Soft Ice Cream","Mobile caterer","7846","","","","","EN3 ","5","fhrs_5_en-gb","","16 December 2016","510","Enfield","http://www.enfield.gov.uk/","environmentalhealth@enfield.gov.uk","000","FHRS","false","",""
"348","767275","52009","Jolly Roger Mobile Ice Cream","Mobile caterer","7846","140 Overwoods Road","Tamworth","Staffordshire","Tamworth","","5","fhrs_5_en-gb","","22 June 2018","295","Tamworth","http://www.tamworth.gov.uk","publicprotection@tamworth.gov.uk","000","FHRS","false","",""
"349","105031","35989","L Viggiano Ice cream van","Mobile caterer","7846","","","Kempston","","","5","fhrs_5_en-gb","","09 June 2018","701","Bedford","http://www.bedford.gov.uk","ehadmin@bedford.gov.uk","000","FHRS","false","-0.5046452.11499",""
"350","689374","EHFDI/06953/14","Lincolnshire Ice Cream Co","Mobile caterer","7846","Unit 3","Coldham Road","Coningsby Lincoln","","LN4 4SE","5","fhrs_5_en-gb","","21 July 2017","220","East Lindsey","http://www.e-lindsey.gov.uk/","customerservices@e-lindsey.gov.uk","055","FHRS","false","-0.15949953.1081161",""
"351","1061162","PI/000080647","Little Spoon Ice Cream Co","Mobile caterer","7846","","","","","EX33","5","fhrs_5_en-gb","","30 June 2018","075","North Devon","http://www.northdevon.gov.uk","customerservices@northdevon.gov.uk","055","FHRS","false","",""
"352","1073935","18/00199/FOOD","Max Ice Cream Ltd","Mobile caterer","7846","","","","","SN2 ","5","fhrs_5_en-gb","","08 May 2019","881","Swindon","http://www.swindon.gov.uk/","foodhealth&safety@swindon.gov.uk","000","FHRS","false","",""
"353","1056933","65158","Mr M Doig   Ice Cream","Mobile caterer","7846","UNIT 1 2 CONDUIT ROAD","NORTON CANES","","CANNOCK","","5","fhrs_5_en-gb","","30 May 2018","287","Cannock Chase","http://www.cannockchasedc.gov.uk","environmentalhealth@cannockchasedc.gov.uk","000","FHRS","false","-1.9718257252.66736",""
"354","491054","7270","Mr T Soft Ice Cream","Mobile caterer","7846","","","","","TW14","5","fhrs_5_en-gb","","09 May 2019","518","Hounslow","http://www.hounslow.gov.uk","foodsafety@hounslow.gov.uk","000","FHRS","false","",""
"355","683907","EHFDI/04303/14","Mrs M'S Ice Cream Parlour","Mobile caterer","7846","Fantasy Island","Sea Lane","Ingoldmells Skegness","","PE25 1RH","5","fhrs_5_en-gb","","22 August 2017","220","East Lindsey","http://www.e-lindsey.gov.uk/","customerservices@e-lindsey.gov.uk","555","FHRS","false","0.34958453.1910973",""
"356","204323","08/00108/MIXED","Mrs Smiley O'Reilly's Ice Cream","Mobile caterer","7846","Unit 22 Mrs Smiley O'Reilly's Ice C","Pixash Lane","Keynsham","Bristol","BS31 1TS","5","fhrs_5_en-gb","","08 April 2014","857","Bath and North East Somerset","http://www.bathnes.gov.uk/healthandsocial/foodsafety/Pages/default.aspx","public_protection@bathnes.gov.uk","550","FHRS","false","-2.46652251.413887",""
"357","703670","PI/000054347","N945 UOC   Ice cream van","Mobile caterer","7846","","","","","EN11","5","fhrs_5_en-gb","","21 September 2018","155","Broxbourne","http://www.broxbourne.gov.uk","envhealth@broxbourne.gov.uk","550","FHRS","false","",""
"358","851643","55826","Needwood Ice Cream   Mobile Vehicles","Mobile caterer","7846","Unit 1 Anslow Industrial Estate","Main Road","Anslow","Burton upon Trent","","5","fhrs_5_en-gb","","17 July 2019","288","East Staffordshire","http://www.eaststaffsbc.gov.uk","foodteam@eaststaffsbc.gov.uk","000","FHRS","false","",""
"359","741580","80651","Noviello Double Flavour Ice Cream","Mobile caterer","7846","","","","","HP2 ","5","fhrs_5_en-gb","","21 June 2019","156","Dacorum","http://www.dacorum.gov.uk","ecp@dacorum.gov.uk","555","FHRS","false","",""
"360","1056180","PI/000054558","Panache Ice Cream Ltd","Mobile caterer","7846","","","","","CO7 ","5","fhrs_5_en-gb","","22 May 2018","297","Babergh","http://www.babergh.gov.uk/","foodsafety@baberghmidsuffolk.gov.uk","550","FHRS","false","",""
"361","1150441","B11GXX17CH/1","Pete's Ice Cream (Plate 31)","Mobile caterer","7846","","","","","L11 ","5","fhrs_5_en-gb","","01 April 2019","421","St Helens","http://www.sthelens.gov.uk","environmentalhealth@sthelens.gov.uk","000","FHRS","false","",""
"362","196611","B11HSH20TH/1","Prince Ice Cream (Plate 21)","Mobile caterer","7846","","","","","WA9 ","5","fhrs_5_en-gb","","10 April 2019","421","St Helens","http://www.sthelens.gov.uk","environmentalhealth@sthelens.gov.uk","500","FHRS","false","",""
"363","973033","PI/000095427","Rita's Ice Cream LTD","Mobile caterer","7846","","","","","CB1 ","5","fhrs_5_en-gb","","17 May 2017","027","Cambridge City","http://www.cambridge.gov.uk","env.health@cambridge.gov.uk","005","FHRS","false","",""
"364","72051","16394","RNL Ice Cream Ltd","Mobile caterer","7846","","MD59 YBG","","","","5","fhrs_5_en-gb","","04 April 2019","418","Oldham","https://www.oldham.gov.uk","FHRS@oldham.gov.uk","000","FHRS","false","",""
"365","397633","20348","Rossi's Ice Cream L518 LWG","Mobile caterer","7846","","","","","S70 ","5","fhrs_5_en-gb","","06 March 2019","401","Barnsley","http://www.barnsley.gov.uk","regulatoryservices@barnsley.gov.uk","555","FHRS","false","",""
"366","398944","90456","Rossi's Ice Cream LS52 VRZ","Mobile caterer","7846","","","","","S70 ","5","fhrs_5_en-gb","","30 June 2017","401","Barnsley","http://www.barnsley.gov.uk","regulatoryservices@barnsley.gov.uk","005","FHRS","false","",""
"367","398523","75409","Rossi's Ice Cream T848 RNP","Mobile caterer","7846","","","","","S70 ","5","fhrs_5_en-gb","","28 July 2011","401","Barnsley","http://www.barnsley.gov.uk","regulatoryservices@barnsley.gov.uk","555","FHRS","false","",""
"368","444312","90394","Sev 1 Golden Ice Cream","Mobile caterer","7846","","","","","IG1 ","5","fhrs_5_en-gb","","16 May 2018","526","Redbridge","http://www.redbridge.gov.uk/","themis.skouros@redbridge.gov.uk","555","FHRS","false","",""
"369","978384","64079","Singh Super Whip Ice Cream","Mobile caterer","7846","","","","","PE3 ","5","fhrs_5_en-gb","","25 May 2017","888","Peterborough City","http://www.peterborough.gov.uk","foodandsafety@peterborough.gov.uk","000","FHRS","true","",""
"370","1068531","60142","Soft Joes Ice Cream Van","Mobile caterer","7846","","8 Lower Crow Nest Drive","","Lightcliffe","HX3 8UN","5","fhrs_5_en-gb","","07 February 2019","406","Calderdale","http://www.calderdale.gov.uk","environmental.health@calderdale.gov.uk","555","FHRS","false","-1.7809393453.72185",""
"371","807248","55659","Somerset Super Soft Ice Cream","Mobile caterer","7846","","","","","TA20","5","fhrs_5_en-gb","","12 October 2017","283","South Somerset","http://www.southsomerset.gov.uk/food","food.safety@southsomerset.gov.uk","000","FHRS","false","",""
"372","1126963","68018","T J's Ice Cream Trikes","Mobile caterer","7846","BLOCK 1 UNIT 4 CANNOCK CHASE ENTERPRISE CENTRE WALKERS RISE","HEDNESFORD","","CANNOCK","WS12 0QU","5","fhrs_5_en-gb","","18 March 2019","287","Cannock Chase","http://www.cannockchasedc.gov.uk","environmentalhealth@cannockchasedc.gov.uk","005","FHRS","false","-1.9875547952.7244225",""
"373","749589","7017","Taylors Ice Cream Vintage Van","Mobile caterer","7846","27 Sloan Street","Largymore","Lisburn","Antrim","BT27 5AG","5","fhrs_5_en-gb","","15 April 2016","809","Lisburn and Castlereagh City","http://www.lisburncastlereagh.gov.uk/","Env.Health@lisburncastlereagh.gov.uk","000","FHRS","false","-6.03532854.5092278",""
"374","877832","101392","Thatched Cottage Ice Cream Company","Mobile caterer","7846","","","","","DN15","5","fhrs_5_en-gb","","13 May 2016","864","North Lincolnshire","http://www.northlincs.gov.uk/environment/environmentalhealth/food/food-safety/","food.safety@northlincs.gov.uk","000","FHRS","false","",""
"375","768138","15/00057/COMM","The Shropshire Ice Cream Company","Mobile caterer","7846","","","","","TF2 ","5","fhrs_5_en-gb","","09 October 2018","900","Telford and Wrekin Council","http://www.telford.gov.uk/","environmental.health@telford.gov.uk","000","FHRS","false","",""
"376","962412","PI/000105143","The Stylish Ice Cream Co","Mobile caterer","7846","Unit 10","Dane Valley Ind Estate","Dane Valley Road","Broadstairs","CT10 3JJ","5","fhrs_5_en-gb","","09 April 2019","190","Thanet","http://www.thanet.gov.uk","environmental.health@thanet.gov.uk","000","FHRS","false","1.41587951.3713379",""
"377","782899","66751","The Vintage Ice Cream Van","Mobile caterer","7846","","","","","RM6 ","5","fhrs_5_en-gb","","06 August 2015","501","Barking and Dagenham","http://www.lbbd.gov.uk/Pages/Home.aspx","foodsafety@lbbd.gov.uk","050","FHRS","false","",""
"378","276638","PI/000051570","Toms Ice Cream - Mobile","Mobile caterer","7846","","","","","HA2 ","5","fhrs_5_en-gb","","17 April 2018","515","Harrow","http://www.harrow.gov.uk","ehealth@harrow.gov.uk","555","FHRS","false","",""
"379","114543","4360","Tony's Treats Ice Cream Van","Mobile caterer","7846","","","","","LE4 ","5","fhrs_5_en-gb","","01 September 2017","210","Charnwood","http://www.charnwood.gov.uk/","food.hygiene@charnwood.gov.uk","555","FHRS","false","",""
"380","414926","10/00147/COM","Tonys Whippy Ice Cream Van","Mobile caterer","7846","","","","","SK15","5","fhrs_5_en-gb","","02 February 2018","430","Tameside","http://www.tameside.gov.uk","environmentalhealth@tameside.gov.uk","555","FHRS","false","",""
"381","680211","302635","Valwins of Durham Ice Cream","Mobile caterer","7846","","","","","DH7 ","5","fhrs_5_en-gb","","17 June 2014","706","Durham","http://www.durham.gov.uk","ehcp@durham.gov.uk","500","FHRS","false","",""
"382","421502","60239","Walls Ice cream K418 DPP","Mobile caterer","7846","","","","","PE1 ","5","fhrs_5_en-gb","","21 August 2017","888","Peterborough City","http://www.peterborough.gov.uk","foodandsafety@peterborough.gov.uk","000","FHRS","false","",""
"383","797999","157062","Walls Ice Cream P882 NOP","Mobile caterer","7846","BL3 2HN","BL3 2HN","Bolton","","BL3 2HN","5","fhrs_5_en-gb","","20 March 2019","403","Bolton","http://www.bolton.gov.uk","environmental.health@bolton.gov.uk","055","FHRS","false","-2.41727553.56166",""
"384","896158","PI/000044522","Whippy Heaven Ice Cream Van","Mobile caterer","7846","","","","","CM23","5","fhrs_5_en-gb","","11 September 2017","157","East Hertfordshire","http://www.eastherts.gov.uk","environmental.health@eastherts.gov.uk","555","FHRS","false","",""
"385","117794","47041","Williamson Park Ice Cream Van","Mobile caterer","7846","","Wyresdale Road","Lancaster","Lancashire","LA1 3DY","5","fhrs_5_en-gb","","20 March 2019","200","Lancaster City","http://www.lancaster.gov.uk/foodratings","foodratings@lancaster.gov.uk","","FHRS","false","-2.78588654.04356",""
"386","361211","12234","ice cream Goodvella pitch 1004","Mobile caterer","7846","","4-6 Clarence Street","Kingston Upon Thames","","KT1 1NY","4","fhrs_4_en-gb","","15 August 2018","521","Kingston-Upon-Thames","http://www.kingston.gov.uk","ehadmin@kingston.gov.uk","5105","FHRS","false","-0.30527651.4108047",""
"387","687176","11500/0094/0/000","Ice Cream Van DG04 CXR","Mobile caterer","7846","","","","","DA8 ","4","fhrs_4_en-gb","","07 August 2017","503","Bexley","http://www.bexley.gov.uk","food.safety@bexley.gov.uk","5510","FHRS","false","",""
"388","640999","70500/0006/0/000","Ice Cream Van X903 PFC","Mobile caterer","7846","6 Leonard Road","Forest Gate","London","","E7 0DB","4","fhrs_4_en-gb","","21 March 2017","525","Newham","https://www.newham.gov.uk","food@newham.gov.uk","5105","FHRS","false","0.02043651.5521431",""
"389","397726","29949","Lou's Ice Cream  N986 CWF","Mobile caterer","7846","","","","","S72 ","4","fhrs_4_en-gb","","31 October 2012","401","Barnsley","http://www.barnsley.gov.uk","regulatoryservices@barnsley.gov.uk","0010","FHRS","false","",""
"390","1096758","PI/000206045","McCurrach Wave Ice Cream Greenwich","Mobile caterer","7846","National Maritime Museum Park Row","","Greenwich","Greenwich","SE10 9NF","4","fhrs_4_en-gb","","25 September 2018","511","Greenwich","http://www.royalgreenwich.gov.uk","health@royalgreenwich.gov.uk","0105","FHRS","false","-0.00375851.481163",""
"391","451467","212444","Mobile Ice Cream E15 OFT","Mobile caterer","7846","","","","","PL6 ","4","fhrs_4_en-gb","","12 July 2018","891","Plymouth City","http://www.plymouth.gov.uk","public.protection@plymouth.gov.uk","5105","FHRS","false","",""
"392","397646","20867","Rossi's Ice Cream P973 YJT","Mobile caterer","7846","","","","","S70 ","4","fhrs_4_en-gb","","28 July 2011","401","Barnsley","http://www.barnsley.gov.uk","regulatoryservices@barnsley.gov.uk","5105","FHRS","false","",""
"393","653335","PI/100043247","Showtime Ice Cream Ltd","Mobile caterer","7846","201 Brook Street","Birkenhead","Wirral","Merseyside","CH41 3SE","4","fhrs_4_en-gb","","22 May 2018","435","Wirral","http://www.wirral.gov.uk","environmentalhealth@wirral.gov.uk","5510","FHRS","false","-3.02901653.397068",""
"394","1050068","221700","The Little Ice Cream Bike","Mobile caterer","7846","","17 Nevern Crescent","","Ingleby Barwick","TS17 5EX","4","fhrs_4_en-gb","","25 April 2018","862","Stockton On Tees","http://www.stockton.gov.uk","environmental.health@stockton.gov.uk","0010","FHRS","false","-1.3302024654.51395",""
"395","28002","08470/0023/0/000","Uncle Dave's Ice Cream Van","Mobile caterer","7846","","","","","LE13","4","fhrs_4_en-gb","","06 November 2018","214","Melton","http://www.melton.gov.uk","fhrs@melton.gov.uk","1055","FHRS","false","",""
"396","414933","11/00097/COM","Salvaggio F Ice Cream Van","Mobile caterer","7846","","","","","M34 ","3","fhrs_3_en-gb","","03 April 2012","430","Tameside","http://www.tameside.gov.uk","environmentalhealth@tameside.gov.uk","10105","FHRS","false","",""
"397","1012467","PI/000012341","The Rolled Ice Cream Company","Mobile caterer","7846","","","","","EN9 ","3","fhrs_3_en-gb","","24 November 2017","115","Epping Forest","http://www.eppingforestdc.gov.uk","publichealth@eppingforestdc.gov.uk","101010","FHRS","false","",""
"398","894426","24078","Asadullah Shabbir Ice Cream Vendor","Mobile caterer","7846","","","","","NW10","2","fhrs_2_en-gb","","28 July 2016","504","Brent","http://www.brent.gov.uk/","ens.foodsafety@brent.gov.uk","1555","FHRS","false","",""
"399","1053715","61255","Ice cream van KR09 YXB","Mobile caterer","7846","","","","","NG18","2","fhrs_2_en-gb","","23 May 2018","263","Mansfield","http://www.mansfield.gov.uk","environmentaladministration@mansfield.gov.uk","101510","FHRS","false","",""
"400","1065405","99559","Sams Ice Cream (Mister Softee)","Mobile caterer","7846","","","","","SS11","2","fhrs_2_en-gb","","05 July 2018","109","Basildon","http://www.basildon.gov.uk","ehs@basildon.gov.uk","101510","FHRS","false","",""
"401","316998","PI/000099300","Fab 5 Ice Cream Vendor","Mobile caterer","7846","","","","","N9 0","1","fhrs_1_en-gb","","03 June 2016","510","Enfield","http://www.enfield.gov.uk/","environmentalhealth@enfield.gov.uk","151520","FHRS","false","",""
"402","1128371","19/00046/FOOD","Ice Cream Queen Ltd","Mobile caterer","7846","","","","","HP13","AwaitingInspection","fhrs_awaitinginspection_en-gb","","N/A","025","Wycombe","http://www.wycombe.gov.uk","Food.Ratings@wycombe.gov.uk","","FHRS","false","",""
"403","1155096","48003","Little Cart of Ice Cream","Mobile caterer","7846","","","","","BB7 ","AwaitingInspection","fhrs_awaitinginspection_en-gb","","N/A","203","Ribble Valley","http://www.ribblevalley.gov.uk","environmental.health@ribblevalley.gov.uk","","FHRS","false","",""
"404","1131775","159063","Walls Ice Cream  X867 LAX","Mobile caterer","7846","BL3 2HW","BL3 2HW","Bolton","","BL3 2HW","AwaitingInspection","fhrs_awaitinginspection_en-gb","","N/A","403","Bolton","http://www.bolton.gov.uk","environmental.health@bolton.gov.uk","","FHRS","true","-2.4193353.5618248",""
"405","452317","PI/000045121","Ice Cream Van X229 ODX","Mobile caterer","7846","Street Market","High Street","Ashford","Kent","TN24 8JG","Exempt","fhrs_exempt_en-gb","","N/A","179","Ashford","http://www.ashford.gov.uk","envhealth@ashford.gov.uk","","FHRS","false","",""
"406","1065986","110444","The Ice Cream Dream Ltd","Mobile caterer","7846","Unit 7 The Creamery Business Park","Station Road","Mochdre","Colwyn Bay","LL28 5EF","5","fhrs_5_en-gb","","18 July 2018","550","Conwy","http://www.conwy.gov.uk","regulatory.services@conwy.gov.uk","000","FHRS","false","-3.7660131553.2924538",""
"407","946737","PI/000084740","Archway Ice Cream Caterers AIG 4087","Mobile caterer","7846","","","","","KT12","5","fhrs_5_en-gb","","12 May 2017","305","Elmbridge","http://www.elmbridge.gov.uk/food","envhealth@elmbridge.gov.uk","000","FHRS","false","",""
"408","1061951","18/00225/MIXED","Ashley Irvin - Ice Cream Unit","Mobile caterer","7846","","","","","BR2 ","5","fhrs_5_en-gb","","09 November 2018","505","Bromley","http://www.bromley.gov.uk","food@bromley.gov.uk","555","FHRS","false","",""
"409","1085005","18/00234/COM","Baci Di Gelato - Ice Cream Kisses","Mobile caterer","7846","","","","","SK15","5","fhrs_5_en-gb","","02 October 2018","430","Tameside","http://www.tameside.gov.uk","environmentalhealth@tameside.gov.uk","505","FHRS","false","",""
"410","1007631","17/00126/MOB","Beacon Farm Ice Cream  (Reg NU10 WJA)","Mobile caterer","7846","Beacon Farm","Beacon Way","Sneaton","Whitby","YO22 5HS","5","fhrs_5_en-gb","","14 September 2017","255","Scarborough","http://www.scarborough.gov.uk/home/business-licensing-and-grants/food-hygiene","","000","FHRS","false","-0.6195554.4573059",""
"411","1084745","227828","Burgess Ice Cream Direct Ltd","Mobile caterer","7846","Clay Lane","Market Weighton","York","","YO43 3PU","5","fhrs_5_en-gb","","15 October 2018","863","East Riding of Yorkshire","http://www.eastriding.gov.uk","food.services@eastriding.gov.uk","555","FHRS","false","-0.68280253.8707",""
"412","123533","51946","Carole Gilbert Ice Cream R967 JOJ","Mobile caterer","7846","","","","","WA7 ","5","fhrs_5_en-gb","","26 February 2018","889","Halton","http://www.halton.gov.uk","FSA_Enforcement@halton.gov.uk","055","FHRS","false","",""
"413","1061317","4373","Carousel Ice Cream - P999 RJN","Mobile caterer","7846","","","","","BT23","5","fhrs_5_en-gb","","29 May 2019","802","Ards and North Down","http://www.ardsandnorthdown.gov.uk","env.health@ardsandnorthdown.gov.uk","000","FHRS","false","",""
"414","513298","13/00088/MOBIC","Cerrulo Ice Cream Van - L171 E0X","Mobile caterer","7846","","","","","SS2 ","5","fhrs_5_en-gb","","26 July 2016","893","Southend-On-Sea","http://www.southend.gov.uk","EnvironmentalHealth@southend.gov.uk","500","FHRS","false","",""
"415","1051428","PI/000099848","Crumptons Ice Cream Van YP11 XML","Mobile caterer","7846","Rhayader","2 Cambrian House","West Street","Rhayader","LD6 5AD","5","fhrs_5_en-gb","","27 June 2019","566","Powys","http://www.powys.gov.uk","public.protection@powys.gov.uk","500","FHRS","false","-3.51102252.30009",""
"416","454873","12593","Cuff's Ice Cream - STP 19","Mobile caterer","7846","","Outside Town Centre","","Preston","","5","fhrs_5_en-gb","","14 January 2019","202","Preston","http://www.preston.gov.uk","info@preston.gov.uk","555","FHRS","false","-1.97485953.8108368",""
"417","137578","72574","Daniel Esposito Ice Cream W84 YOA","Mobile caterer","7846","","","","","WA8 ","5","fhrs_5_en-gb","","01 September 2017","889","Halton","http://www.halton.gov.uk","FSA_Enforcement@halton.gov.uk","000","FHRS","false","",""
"418","805509","87499","Ethans Ice Cream Vehicle VO09 VKS","Mobile caterer","7846","Harrison Street","Widnes","Halton","","WA8 8TN","5","fhrs_5_en-gb","","30 November 2018","889","Halton","http://www.halton.gov.uk","FSA_Enforcement@halton.gov.uk","000","FHRS","false","-2.76771953.3550262",""
"419","1096360","COMM/18/00142","Fat Cows Ice Cream (H2 7UB)","Mobile caterer","7846","","","","","CM18","5","fhrs_5_en-gb","","14 March 2019","116","Harlow","http://www.harlow.gov.uk/","env.health@harlow.gov.uk","000","FHRS","false","",""
"420","340440","22268","FAT SAMS ICE CREAM LTD","Mobile caterer","7846","","","","","BH21","5","fhrs_5_en-gb","","17 July 2018","085","Dorset","https://www.dorsetcouncil.gov.uk/","envhealthteamb@dorsetcouncil.gov.uk","555","FHRS","false","",""
"421","130465","61675","Ferraiolo Frank Ice Cream Vehicle Y587 OBF","Mobile caterer","7846","","","","","WA8 ","5","fhrs_5_en-gb","","26 July 2016","889","Halton","http://www.halton.gov.uk","FSA_Enforcement@halton.gov.uk","005","FHRS","false","",""
"422","150365","980","Five Ice Cream Kiosks (Kiosk 1)","Mobile caterer","7846","","","","","PE36","5","fhrs_5_en-gb","","09 October 2018","230","King's Lynn and West Norfolk","http://www.west-norfolk.gov.uk/","foodhygieneandsafety@west-norfolk.gov.uk","555","FHRS","false","",""
"423","433201","21668","Five Ice Cream Kiosks (Kiosk 2)","Mobile caterer","7846","","","","","PE36","5","fhrs_5_en-gb","","09 October 2018","230","King's Lynn and West Norfolk","http://www.west-norfolk.gov.uk/","foodhygieneandsafety@west-norfolk.gov.uk","555","FHRS","false","",""
"424","433202","21669","Five Ice Cream Kiosks (Kiosk 3)","Mobile caterer","7846","","","","","PE36","5","fhrs_5_en-gb","","09 October 2018","230","King's Lynn and West Norfolk","http://www.west-norfolk.gov.uk/","foodhygieneandsafety@west-norfolk.gov.uk","555","FHRS","false","",""
"425","433203","21670","Five Ice Cream Kiosks (Kiosk 4)","Mobile caterer","7846","","","","","PE36","5","fhrs_5_en-gb","","09 October 2018","230","King's Lynn and West Norfolk","http://www.west-norfolk.gov.uk/","foodhygieneandsafety@west-norfolk.gov.uk","555","FHRS","false","",""
"426","433204","21671","Five Ice Cream Kiosks (Kiosk 5)","Mobile caterer","7846","","","","","PE36","5","fhrs_5_en-gb","","09 October 2018","230","King's Lynn and West Norfolk","http://www.west-norfolk.gov.uk/","foodhygieneandsafety@west-norfolk.gov.uk","555","FHRS","false","",""
"427","910971","317802601","Fry Family Ice Cream N590 WAW","Mobile caterer","7846","78 St Gregorys Crescent","Gravesend","Kent","","DA12 4JN","5","fhrs_5_en-gb","","10 July 2018","184","Gravesham","http://www.gravesham.gov.uk/","hygiene.ratingscheme@gravesham.gov.uk","000","FHRS","false","0.391631151.4275856",""
"428","320908","00022171","Gallone Ice Cream - GJ 52 KYY","Mobile caterer","7846","","","","","LS8 ","5","fhrs_5_en-gb","","14 November 2014","413","Leeds","http://www.leeds.gov.uk/","food.safety@leeds.gov.uk","005","FHRS","false","",""
"429","126685","55799","Gino Ferraiolo Ice Cream J68 HDM","Mobile caterer","7846","Harrison Street","Widnes","Halton","","WA8 8TN","5","fhrs_5_en-gb","","27 September 2017","889","Halton","http://www.halton.gov.uk","FSA_Enforcement@halton.gov.uk","055","FHRS","false","-2.76771953.3550262",""
"430","138099","73295","Gino Ferraiolo Ice Cream YY52 HKC","Mobile caterer","7846","Harrison Street","Widnes","Halton","","WA8 8TN","5","fhrs_5_en-gb","","27 September 2017","889","Halton","http://www.halton.gov.uk","FSA_Enforcement@halton.gov.uk","055","FHRS","false","-2.76771953.3550262",""
"431","639537","37663","Graham Humphries T/A Mr Whippy Ice Cream","Mobile caterer","7846","","","","","SK3 ","5","fhrs_5_en-gb","","22 January 2019","428","Stockport","http://www.stockport.gov.uk","food.safety@stockport.gov.uk","000","FHRS","false","",""
"432","769662","58794","Grandpa Greene's Luxury Ice Cream Ltd","Mobile caterer","7846","Trailer 1","5 Ward Lane","Diggle","Oldham","OL3 5JT","5","fhrs_5_en-gb","","21 August 2017","418","Oldham","https://www.oldham.gov.uk","FHRS@oldham.gov.uk","000","FHRS","false","-1.99478353.5635567",""
"433","154774","CP2389","Ice Cream Van (reg. No. NTR 575M)","Mobile caterer","7846","","","","","GL5 ","5","fhrs_5_en-gb","","18 September 2015","128","Stroud","http://www.stroud.gov.uk","environmental.health@stroud.gov.uk","555","FHRS","false","",""
"434","255156","PI/000171415","Ice Cream Van (T/A Mister Softee)","Mobile caterer","7846","","","","","SE6 ","5","fhrs_5_en-gb","","29 November 2018","523","Lewisham","http://www.lewisham.gov.uk/myservices/business/food-safety/Pages/default.aspx","david.edwards@lewisham.gov.uk","555","FHRS","false","",""
"435","217186","35944","Ice Cream Van , DK07ST2, DK02RXA, FP16FAB","Mobile caterer","7846","","","","","NG7 ","5","fhrs_5_en-gb","","22 August 2012","899","Nottingham City","http://www.nottinghamcity.gov.uk/foodsafety","food.enforcement@nottinghamcity.gov.uk","055","FHRS","false","",""
"436","978955","77100","Ice Cream Van - E739 VVU","Mobile caterer","7846","","","","","NG8 ","5","fhrs_5_en-gb","","03 August 2017","899","Nottingham City","http://www.nottinghamcity.gov.uk/foodsafety","food.enforcement@nottinghamcity.gov.uk","055","FHRS","false","",""
"437","674305","14/00017/COMM","Ice Cream Van - G507 MAH","Mobile caterer","7846","","","","","PR7 ","5","fhrs_5_en-gb","","01 February 2017","197","Chorley","http://www.chorley.gov.uk/foodratings","contact@chorley.gov.uk","555","FHRS","false","",""
"438","969523","741281","Ice Cream Van - Reg W213 XDA","Mobile caterer","7846","","","","","CF5 ","5","fhrs_5_en-gb","","27 July 2018","556","Cardiff","https://www.srs.wales/en/Environmental-Health/Food-Hygiene-Standards/Food.aspx","FoodSafetyCardiff-SRSWales@valeofglamorgan.gov.uk","555","FHRS","false","",""
"439","878758","16/00020/COMM","Ice Cream Van Reg H718 ENV","Mobile caterer","7846","","","","","PR25","5","fhrs_5_en-gb","","29 February 2016","197","Chorley","http://www.chorley.gov.uk/foodratings","contact@chorley.gov.uk","555","FHRS","false","",""
"440","256313","PI/000137548","Ice Cream Van T/A Dev's Ices","Mobile caterer","7846","","","","","SE4 ","5","fhrs_5_en-gb","","05 March 2019","523","Lewisham","http://www.lewisham.gov.uk/myservices/business/food-safety/Pages/default.aspx","david.edwards@lewisham.gov.uk","000","FHRS","false","",""
"441","817844","10/00210/FOOD","Ice Cream Vans - P439 EOL","Mobile caterer","7846","1 Dore Avenue","Manor Park","London","","E12 6JT","5","fhrs_5_en-gb","","12 October 2018","525","Newham","https://www.newham.gov.uk","food@newham.gov.uk","000","FHRS","false","0.06527751.5478973",""
"442","771318","56932","Jazz Ice Cream [Reg No: VA57 NJV]","Mobile caterer","7846","","","","","M32 ","5","fhrs_5_en-gb","","14 March 2018","431","Trafford","http://www.trafford.gov.uk","environmental.health@trafford.gov.uk","555","FHRS","false","",""
"443","1055932","18/00050/FOOD","Jimm's Ice Cream Co - J99 CNE","Mobile caterer","7846","","","","","E6 6","5","fhrs_5_en-gb","","25 May 2019","525","Newham","https://www.newham.gov.uk","food@newham.gov.uk","000","FHRS","false","",""
"444","775316","14/00060/MIXED","Kev's Ices - 2 Ice Cream Vans","Mobile caterer","7846","","","","","BR6 ","5","fhrs_5_en-gb","","25 June 2015","505","Bromley","http://www.bromley.gov.uk","food@bromley.gov.uk","555","FHRS","false","",""
"445","697159","34837","Leo's Ice Cream - N99 LEO","Mobile caterer","7846","Leos Ice Cream","Thomas Street","Wolverhampton","West Midlands","WV2 4JS","5","fhrs_5_en-gb","","29 March 2018","436","Wolverhampton","http://www.wolverhampton.gov.uk/","customer.services@wolverhampton.gov.uk","500","FHRS","false","-2.12942152.5788345",""
"446","697118","17365","Leo's Ice Cream Mobile (Dudley Street)","Mobile caterer","7846","Leo's Ice Cream","Pitch 6A Fronting 44 To 45","Dudley Street","City Centre","","5","fhrs_5_en-gb","","29 March 2018","436","Wolverhampton","http://www.wolverhampton.gov.uk/","customer.services@wolverhampton.gov.uk","005","FHRS","false","",""
"447","1098293","18/00313/COM","Levaggis Ice Cream Van MB04 FOJ","Mobile caterer","7846","","","","","M34 ","5","fhrs_5_en-gb","","14 December 2018","430","Tameside","http://www.tameside.gov.uk","environmentalhealth@tameside.gov.uk","555","FHRS","false","",""
"448","772990","15/00029/FOOD","Lewis Lee Ice Cream Ltd","Mobile caterer","7846","23 Hornbeams","Thundersley","Benfleet","Essex","SS7 4NP","5","fhrs_5_en-gb","","15 March 2019","112","Castle Point","http://www.castlepoint.gov.uk","environmentalhealth@castlepoint.gov.uk","000","FHRS","false","0.55145751.57766",""
"449","924466","55381","Marios Events (Additional Ice Cream Van)","Mobile caterer","7846","","","","","PO3 ","5","fhrs_5_en-gb","","02 February 2017","876","Portsmouth","http://www.portsmouth.gov.uk","public.protection@portsmouthcc.gov.uk","555","FHRS","false","",""
"450","748479","12/00073/CP","Mel Ice Cream - DA02 GXK","Mobile caterer","7846","","","","","RM17","5","fhrs_5_en-gb","","16 March 2018","894","Thurrock","http://www.thurrock.gov.uk/food","foodsafety@thurrock.gov.uk","000","FHRS","false","",""
"451","978715","PI/000077885","Melvins Super Soft Ice Cream N927UOC","Mobile caterer","7846","","","","","CT14","5","fhrs_5_en-gb","","04 July 2019","182","Dover","http://www.dover.gov.uk/","envhealth@dover.gov.uk","555","FHRS","false","",""
"452","139095","74533","Michael Foran Ice Cream FB02 GWA","Mobile caterer","7846","","","","","WA8 ","5","fhrs_5_en-gb","","18 April 2019","889","Halton","http://www.halton.gov.uk","FSA_Enforcement@halton.gov.uk","005","FHRS","false","",""
"453","948997","PI/500011987","Mobile - Dairy Fairy Ice Cream","Mobile caterer","7846","","","","","L40 ","5","fhrs_5_en-gb","","11 April 2019","206","West Lancashire","http://www.westlancs.gov.uk","EnvHealth.Admin@westlancs.gov.uk","555","FHRS","false","",""
"454","91437","2527","Mr Staniland ( Ice cream )","Mobile caterer","7846","","","","","NG17","5","fhrs_5_en-gb","","07 October 2016","259","Ashfield","http://www.ashfield-dc.gov.uk","info@ashfield-dc.gov.uk","000","FHRS","false","",""
"455","960822","64208","Mr Whippy Soft Ice Cream Ltd","Mobile caterer","7846","","163 Dogsthorpe Road","Peterborough","","PE1 3AJ","5","fhrs_5_en-gb","","14 March 2019","888","Peterborough City","http://www.peterborough.gov.uk","foodandsafety@peterborough.gov.uk","500","FHRS","false","-0.24219352.5860176",""
"456","902994","157489","Nestle Ice Cream Van R607 WPU","Mobile caterer","7846","BL3 2HX","BL3 2HX","Bolton","","BL3 2HX","5","fhrs_5_en-gb","","16 April 2019","403","Bolton","http://www.bolton.gov.uk","environmental.health@bolton.gov.uk","005","FHRS","false","-2.41902853.5587769",""
"457","1112752","53326","Nino's of Rhos Ice Cream Van","Mobile caterer","7846","","","","","LL30","5","fhrs_5_en-gb","","31 May 2019","550","Conwy","http://www.conwy.gov.uk","regulatory.services@conwy.gov.uk","000","FHRS","false","",""
"458","1152735","20719","Papa Gee's Crazy Ice Cream Truck","Mobile caterer","7846","","","","","HA8 ","5","fhrs_5_en-gb","","14 June 2019","504","Brent","http://www.brent.gov.uk/","ens.foodsafety@brent.gov.uk","505","FHRS","false","",""
"459","952933","3125","Papa's Mineral Co T/A Ice Cream Trailer","Mobile caterer","7846","","","","","BT19","5","fhrs_5_en-gb","","24 May 2016","802","Ards and North Down","http://www.ardsandnorthdown.gov.uk","env.health@ardsandnorthdown.gov.uk","005","FHRS","false","",""
"460","953162","3797","PAPAS MINERAL CO T/A ICE CREAM TRICYCLE","Mobile caterer","7846","","","","","BT19","5","fhrs_5_en-gb","","24 May 2016","802","Ards and North Down","http://www.ardsandnorthdown.gov.uk","env.health@ardsandnorthdown.gov.uk","005","FHRS","false","",""
"461","568981","49968","Paramasamy Ice Cream Van CX08 YGA","Mobile caterer","7846","","","","","UB10","5","fhrs_5_en-gb","","26 May 2016","517","Hillingdon","http://www.hillingdon.gov.uk/foodsafety","environmentalhealthcp@hillingdon.gov.uk","555","FHRS","false","",""
"462","1053676","149183","Paramasamy Ice Cream Van W 99 PLS","Mobile caterer","7846","","","","","UB10","5","fhrs_5_en-gb","","23 April 2018","517","Hillingdon","http://www.hillingdon.gov.uk/foodsafety","environmentalhealthcp@hillingdon.gov.uk","555","FHRS","false","",""
"463","857284","233020","Pembrokeshire Coastal Ice Cream Co. Ltd","Mobile caterer","7846","","","","","","5","fhrs_5_en-gb","","28 March 2018","565","Pembrokeshire","http://www.pembrokeshire.gov.uk","foodratings@pembrokeshire.gov.uk","000","FHRS","false","",""
"464","41075","10208","RNL Ice Cream Ltd: Robert Lumb","Mobile caterer","7846","","","","","OL12","5","fhrs_5_en-gb","","06 April 2017","419","Rochdale","http://www.rochdale.gov.uk","environmental.health2@rochdale.gov.uk","000","FHRS","false","",""
"465","376850","C14GCTTRAD/4575","Robinsons Ice Cream Van Reg B755 RKS","Mobile caterer","7846","","","","","PR7 ","5","fhrs_5_en-gb","","04 June 2014","197","Chorley","http://www.chorley.gov.uk/foodratings","contact@chorley.gov.uk","555","FHRS","false","",""
"466","990347","17/00105/COMM","Robinsons Ice Cream Van Reg Y683 MJN","Mobile caterer","7846","","","","","PR7 ","5","fhrs_5_en-gb","","31 July 2017","197","Chorley","http://www.chorley.gov.uk/foodratings","contact@chorley.gov.uk","555","FHRS","false","",""
"467","123371","51825","Ronnie Foran Ice Cream WR02 FVC","Mobile caterer","7846","","","","","WA8 ","5","fhrs_5_en-gb","","18 April 2019","889","Halton","http://www.halton.gov.uk","FSA_Enforcement@halton.gov.uk","005","FHRS","false","",""
"468","390433","10/00026/CP","Rossi Ice Cream (Petes Ices) (L16 KMF)","Mobile caterer","7846","","","","","RM16","5","fhrs_5_en-gb","","15 October 2018","894","Thurrock","http://www.thurrock.gov.uk/food","foodsafety@thurrock.gov.uk","000","FHRS","false","",""
"469","960334","17/00032/CP","Rossi Ice Cream (Petes Ices) (T410 RPJ)","Mobile caterer","7846","","","","","RM16","5","fhrs_5_en-gb","","15 October 2018","894","Thurrock","http://www.thurrock.gov.uk/food","foodsafety@thurrock.gov.uk","000","FHRS","false","",""
"470","524815","98760","Shirley Park - Ice Cream Van","Mobile caterer","7846","Shirley Park","Stratford Road","Shirley","Solihull West Midlands","B90 3AE","5","fhrs_5_en-gb","","31 March 2016","426","Solihull","http://www.solihull.gov.uk/foodhygieneratingscheme/default.htm","pprotection@solihull.gov.uk","555","FHRS","false","-1.82674952.4102974",""
"471","318116","PI/000170711","Snow White - Ice cream Van","Mobile caterer","7846","","","","","EN1 ","5","fhrs_5_en-gb","","09 May 2016","510","Enfield","http://www.enfield.gov.uk/","environmentalhealth@enfield.gov.uk","055","FHRS","false","",""
"472","503513","35542","Summers Ice Cream (Mr Super Whippy)","Mobile caterer","7846","Washford Farm","Icknield Street Drive","Studley","","B80 7BD","5","fhrs_5_en-gb","","23 May 2018","320","Stratford-on-Avon","http://www.stratford.gov.uk","food@stratford-dc.gov.uk","055","FHRS","false","-1.89624352.2832947",""
"473","1060034","18/00055/COMM","Super Soft Ice Cream Van YC04 ZZN","Mobile caterer","7846","","","","","RH10","5","fhrs_5_en-gb","","09 July 2018","326","Crawley","http://www.crawley.gov.uk","foodandsafety@crawley.gov.uk","555","FHRS","false","",""
"474","325153","143515","Super Whippy Ice Cream - F150 FT","Mobile caterer","7846","","","","","BD2 ","5","fhrs_5_en-gb","","11 July 2019","404","Bradford","http://www.bradford.gov.uk","eh.admin@bradford.gov.uk","000","FHRS","false","",""
"475","750967","230800","Super Whippy Ice Cream - K88 SHX","Mobile caterer","7846","","","","","BD2 ","5","fhrs_5_en-gb","","02 April 2015","404","Bradford","http://www.bradford.gov.uk","eh.admin@bradford.gov.uk","000","FHRS","false","",""
"476","551131","215151","Super Whippy Ice Cream - MRW 18Y","Mobile caterer","7846","","","","","BD2 ","5","fhrs_5_en-gb","","11 July 2019","404","Bradford","http://www.bradford.gov.uk","eh.admin@bradford.gov.uk","000","FHRS","false","",""
"477","551132","215152","Super Whippy Ice Cream - MRW 19Y","Mobile caterer","7846","","","","","BD2 ","5","fhrs_5_en-gb","","02 February 2016","404","Bradford","http://www.bradford.gov.uk","eh.admin@bradford.gov.uk","000","FHRS","false","",""
"478","750969","233019","Super Whippy Ice Cream - MV58 FCE","Mobile caterer","7846","","","","","BD2 ","5","fhrs_5_en-gb","","02 April 2015","404","Bradford","http://www.bradford.gov.uk","eh.admin@bradford.gov.uk","000","FHRS","false","",""
"479","904178","239876","Super Whippy Ice Cream - S50 FFT","Mobile caterer","7846","","","","","BD2 ","5","fhrs_5_en-gb","","29 July 2016","404","Bradford","http://www.bradford.gov.uk","eh.admin@bradford.gov.uk","000","FHRS","false","",""
"480","1159380","256424","Super Whippy Ice Cream DA07 OLU","Mobile caterer","7846","","","","","BD2 ","5","fhrs_5_en-gb","","11 July 2019","404","Bradford","http://www.bradford.gov.uk","eh.admin@bradford.gov.uk","000","FHRS","false","",""
"481","1057286","249345","Super Whippy Ice Cream DK08 YND","Mobile caterer","7846","","","","","BD2 ","5","fhrs_5_en-gb","","08 June 2018","404","Bradford","http://www.bradford.gov.uk","eh.admin@bradford.gov.uk","000","FHRS","false","",""
"482","324611","103065","Super Whippy Ice Cream JFZ 3227","Mobile caterer","7846","","","","","BD2 ","5","fhrs_5_en-gb","","02 February 2016","404","Bradford","http://www.bradford.gov.uk","eh.admin@bradford.gov.uk","000","FHRS","false","",""
"483","1159381","256428","Super Whippy Ice Cream NFH 585L","Mobile caterer","7846","","","","","BD2 ","5","fhrs_5_en-gb","","11 July 2019","404","Bradford","http://www.bradford.gov.uk","eh.admin@bradford.gov.uk","000","FHRS","false","",""
"484","1057289","249360","Super Whippy Ice Cream YC61 JEO","Mobile caterer","7846","","","","","BD2 ","5","fhrs_5_en-gb","","08 June 2018","404","Bradford","http://www.bradford.gov.uk","eh.admin@bradford.gov.uk","000","FHRS","false","",""
"485","1020363","PI/000153070","Sweet Dreams Ice Cream (MT07 GDO)","Mobile caterer","7846","Rowleys Yard","Woodlands Park Road","Tottenham","London","N15 3RT","5","fhrs_5_en-gb","","27 September 2017","514","Haringey","http://www.haringey.gov.uk","frontline@haringey.gov.uk","555","FHRS","false","-0.09367951.5848427",""
"486","693707","PI/000146315","Sweet Dreams Ice Cream (T544 BCK)","Mobile caterer","7846","","","","","N15 ","5","fhrs_5_en-gb","","14 September 2016","514","Haringey","http://www.haringey.gov.uk","frontline@haringey.gov.uk","005","FHRS","false","",""
"487","1063262","PI/000106568","Tania's Ice Cream - A9 FKE","Mobile caterer","7846","","","","","CT10","5","fhrs_5_en-gb","","11 June 2018","190","Thanet","http://www.thanet.gov.uk","environmental.health@thanet.gov.uk","000","FHRS","false","",""
"488","1063261","PI/000106567","Tania's Ice Cream - LOL 3Y","Mobile caterer","7846","","","","","CT10","5","fhrs_5_en-gb","","11 June 2018","190","Thanet","http://www.thanet.gov.uk","environmental.health@thanet.gov.uk","000","FHRS","false","",""
"489","918722","219443","The Devon Vintage Ice Cream Van Co","Mobile caterer","7846","Westmoor View","Boringdon Road","Plympton","Plymouth","PL7 4DZ","5","fhrs_5_en-gb","","03 July 2018","891","Plymouth City","http://www.plymouth.gov.uk","public.protection@plymouth.gov.uk","000","FHRS","false","-4.05747650.39149",""
"490","536482","PI/000016219","The Ice Cream Centre Ltd","Mobile caterer","7846","","","","","CV23","5","fhrs_5_en-gb","","21 June 2016","236","Daventry","http://www.daventrydc.gov.uk","healthimprovement@daventrydc.gov.uk","005","FHRS","false","",""
"491","439577","38022","The Ice Cream Lady  R99 Mcx","Mobile caterer","7846","","","","","","5","fhrs_5_en-gb","","09 April 2019","293","Staffordshire Moorlands","http://www.staffsmoorlands.gov.uk","EnvHealth@highpeak.gcsx.gov.uk","005","FHRS","false","",""
"492","105029","35988","The Ice Cream Man (Mr John Ford)","Mobile caterer","7846","","","Bedford","","","5","fhrs_5_en-gb","","23 September 2016","701","Bedford","http://www.bedford.gov.uk","ehadmin@bedford.gov.uk","550","FHRS","false","-0.4636952.13921",""
"493","654369","107530","Tir Prince Amusement Ice Cream Unit","Mobile caterer","7846","Tir Prince Leisure Park","Towyn Road","Towyn","Conwy","LL22 9NW","5","fhrs_5_en-gb","","27 September 2018","550","Conwy","http://www.conwy.gov.uk","regulatory.services@conwy.gov.uk","000","FHRS","false","-3.53689653.3031235",""
"494","892477","239057","Tony's Ice Cream - KIY YN","Mobile caterer","7846","","","","","BD9 ","5","fhrs_5_en-gb","","26 March 2019","404","Bradford","http://www.bradford.gov.uk","eh.admin@bradford.gov.uk","505","FHRS","false","",""
"495","1034296","71489","Two Little Penquins Ice Cream Bike","Mobile caterer","7846","","","","","L23 ","5","fhrs_5_en-gb","","12 June 2018","424","Sefton","http://www.sefton.gov.uk/","ETSContact@sefton.gov.uk","050","FHRS","false","",""
"496","1129134","88722","Vincents Ice Cream Vehicle Registration VK07 YTX","Mobile caterer","7846","Golden Triangle","Harrison Street","Widnes","","WA8 8TN","5","fhrs_5_en-gb","","17 April 2019","889","Halton","http://www.halton.gov.uk","FSA_Enforcement@halton.gov.uk","055","FHRS","false","-2.76771953.3550262",""
"497","1131784","78718","Walls Whippy Ice Cream - L91 OUB","Mobile caterer","7846","BL3 6YG","BL3 6YG","Bolton","","BL3 6YG","5","fhrs_5_en-gb","","16 March 2018","403","Bolton","http://www.bolton.gov.uk","environmental.health@bolton.gov.uk","055","FHRS","false","-2.43061453.5684166",""
"498","760285","CP3904","Winstones Ice Cream Ltd (A958 KVR)","Mobile caterer","7846","Green Acres","Rodborough Common","Stroud","Gloucestershire","GL5 5BX","5","fhrs_5_en-gb","","24 January 2018","128","Stroud","http://www.stroud.gov.uk","environmental.health@stroud.gov.uk","555","FHRS","false","-2.21056951.7248",""
"499","154865","CP2689","Winstones Ice Cream Ltd (J781 URF)","Mobile caterer","7846","Green Acres","Rodborough Common","Stroud","Gloucestershire","GL5 5BX","5","fhrs_5_en-gb","","24 January 2018","128","Stroud","http://www.stroud.gov.uk","environmental.health@stroud.gov.uk","555","FHRS","false","-2.21056951.7248",""
"500","760286","CP3905","Winstones Ice Cream Ltd (MOW 402R)","Mobile caterer","7846","Green Acres","Rodborough Common","Stroud","Gloucestershire","GL5 5BX","5","fhrs_5_en-gb","","24 January 2018","128","Stroud","http://www.stroud.gov.uk","environmental.health@stroud.gov.uk","555","FHRS","false","-2.21056951.7248",""
"501","563406","8504","Yorkshire Dales Ice Cream - Retail Units","Mobile caterer","7846","Calm Slate Farm","Holme Lane","Halton East","Skipton","BD23 6EU","5","fhrs_5_en-gb","","18 April 2018","250","Craven","http://www.cravendc.gov.uk","environmentalhealth@cravendc.gov.uk","555","FHRS","false","-1.9420362753.9836655",""
"502","868591","157409","Gujjar Ice Cream - R869 AOL","Mobile caterer","7846","BL3 3DH","BL3 3DH","Bolton","","BL3 3DH","4","fhrs_4_en-gb","","19 March 2018","403","Bolton","http://www.bolton.gov.uk","environmental.health@bolton.gov.uk","5010","FHRS","false","-2.43202853.5605",""
"503","1068566","96401","Ice cream First Come First Serve","Mobile caterer","7846","","Thames Street","Kingston Upon Thames","","","4","fhrs_4_en-gb","","20 July 2018","521","Kingston-Upon-Thames","http://www.kingston.gov.uk","ehadmin@kingston.gov.uk","5105","FHRS","false","-0.30678751.4104767",""
"504","219611","19370/0003/0/000","Ice Cream Hawker (trading At Mayflower Park)","Mobile caterer","7846","3 Turnstone Gardens","Southampton","","","SO16 8EW","4","fhrs_4_en-gb","","07 January 2019","877","Southampton","http://www.southampton.gov.uk","hygiene.rating@southampton.gov.uk","5510","FHRS","false","-1.43831750.9436646",""
"505","1099819","19/00030/FOOD","Ice Cream Vans - YG12 CWC","Mobile caterer","7846","","","","","E12 ","4","fhrs_4_en-gb","","25 May 2019","525","Newham","https://www.newham.gov.uk","food@newham.gov.uk","0010","FHRS","false","",""
"506","1070273","259447","Mobile Ice Cream Van S326 ETT","Mobile caterer","7846","","82 Trelawney Road","Peverell","Plymouth","PL3 4JY","4","fhrs_4_en-gb","","21 July 2018","891","Plymouth City","http://www.plymouth.gov.uk","public.protection@plymouth.gov.uk","5510","FHRS","false","-4.14304550.38678",""
"507","426622","44130","Mr Terry's Ice Cream (R475 WHE)","Mobile caterer","7846","","205 Winchester Road","Stretford","Manchester","M32 9PT","4","fhrs_4_en-gb","","08 March 2018","431","Trafford","http://www.trafford.gov.uk","environmental.health@trafford.gov.uk","1055","FHRS","false","-2.33737353.4524956",""
"508","1039197","158506","Paps Whippy Ice Cream T239 AOH","Mobile caterer","7846","BL3 2DT","BL3 2DT","Bolton","","BL3 2DT","4","fhrs_4_en-gb","","09 March 2018","403","Bolton","http://www.bolton.gov.uk","environmental.health@bolton.gov.uk","5010","FHRS","false","-2.42323253.5609741",""
"509","963374","PI/000182432","Sevenler Soft Ice Cream Ltd","Mobile caterer","7846","","","","","EN3 ","4","fhrs_4_en-gb","","19 April 2017","510","Enfield","http://www.enfield.gov.uk/","environmentalhealth@enfield.gov.uk","0510","FHRS","false","",""
"510","1104660","159008","Super Whippy Ice Cream Van W627 VOG","Mobile caterer","7846","BL3 3AN","BL3 3AN","Bolton","","BL3 3AN","4","fhrs_4_en-gb","","06 February 2019","403","Bolton","http://www.bolton.gov.uk","environmental.health@bolton.gov.uk","10010","FHRS","false","-2.43826153.56029",""
"511","449830","12/00253/FOOD","Tommy's Ices (Master Whip Ice Cream Van)","Mobile caterer","7846","Unit 3","Union Road Trading Estate","North Shields","Tyne And Wear","NE30 1HR","4","fhrs_4_en-gb","","14 August 2012","417","North Tyneside","http://www.northtyneside.gov.uk/","environmental.health@northtyneside.gov.uk","10010","FHRS","false","-1.43499255.00982",""
"512","840449","130797","Fentons Ice Cream at The Oracle","Mobile caterer","7846","","Bridge Street","Reading","","RG1 2AG","3","fhrs_3_en-gb","","06 August 2018","884","Reading","http://www.reading.gov.uk","consumerprotection@reading.gov.uk","101010","FHRS","false","-0.97132951.4536552",""
"513","866031","99349","Super Soft Ice Cream Van N93 VOL","Mobile caterer","7846","","","","","SL2 ","3","fhrs_3_en-gb","","10 January 2018","885","Slough","http://www.slough.gov.uk","foodandsafety@slough.gov.uk","10510","FHRS","false","",""
"514","1134547","313670","Hamsterley Forest Ice Cream Kiosk Ltd","Mobile caterer","7846","","","","","DL14","AwaitingInspection","fhrs_awaitinginspection_en-gb","","N/A","706","Durham","http://www.durham.gov.uk","ehcp@durham.gov.uk","","FHRS","false","",""
"515","701586","PI/000277220","Mister Sky - ice cream van","Mobile caterer","7846","Oakwell Hall Country Park","Oakwell Hall","Nutter Lane","Birstall","","Exempt","fhrs_exempt_en-gb","","N/A","411","Kirklees","http://www.kirklees.gov.uk/","food.safety@kirklees.gov.uk","","FHRS","false","",""
"516","94573","27740","Mr & Mrs Whirly Ice Cream Ltd T/A Ice Cream Emporium","Mobile caterer","7846","Unit 8 And 9","Millfield Close","Chard","Somerset","TA20 2DJ","5","fhrs_5_en-gb","","28 June 2018","283","South Somerset","http://www.southsomerset.gov.uk/food","food.safety@southsomerset.gov.uk","555","FHRS","false","-2.95304350.87176",""
"517","641251","11452","A F Soft Ice Cream Ltd","Mobile caterer","7846","","","","","SW12","5","fhrs_5_en-gb","","02 November 2017","532","Wandsworth","http://www.wandsworth.gov.uk","foodsafety@wandsworth.gov.uk","500","FHRS","false","",""
"518","656415","82251","Carl Mealor Ice Cream Vehicle Registration VK58 RVU","Mobile caterer","7846","","","","","L35 ","5","fhrs_5_en-gb","","28 March 2017","889","Halton","http://www.halton.gov.uk","FSA_Enforcement@halton.gov.uk","505","FHRS","false","",""
"519","669929","14/00077/FOOD","Caroline's Dairy Events Ice Cream Vans(x2) \& Bikes(x2)","Mobile caterer","7846","Chalder Farm","Chalder Lane","Sidlesham","Chichester","PO20 7RN","5","fhrs_5_en-gb","","21 June 2018","325","Chichester","http://www.chichester.gov.uk","environmentalhealth@chichester.gov.uk","000","FHRS","false","-0.78083550.7863235",""
"520","195098","11/00831/FOOD","Centauro's Ice Cream - G854 YPO / OPX 986S","Mobile caterer","7846","","","","","HP12","5","fhrs_5_en-gb","","22 June 2018","025","Wycombe","http://www.wycombe.gov.uk","Food.Ratings@wycombe.gov.uk","555","FHRS","false","",""
"521","695590","PI/000189459","Coffee & Ice Cream Parlour","Mobile caterer","7846","(next Tocable Car) Edmund Halley Way","","Greenwich","Greenwich","SE10","5","fhrs_5_en-gb","","04 September 2018","511","Greenwich","http://www.royalgreenwich.gov.uk","health@royalgreenwich.gov.uk","500","FHRS","false","0.0065851.49929",""
"522","1047287","99510","Cole & Sons Traditional Ice Cream","Mobile caterer","7846","","","","","SS12","5","fhrs_5_en-gb","","03 July 2018","109","Basildon","http://www.basildon.gov.uk","ehs@basildon.gov.uk","050","FHRS","false","",""
"523","1154981","19/00023/MOBILE","Donut And Ice Cream Parlour","Mobile caterer","7846","","","","","NG16","5","fhrs_5_en-gb","","27 June 2019","063","Bolsover","http://www.bolsover.gov.uk/","enquiries@bolsover.gov.uk","000","FHRS","false","",""
"524","573128","PI/000031329","G. Manto T/A Ice Cream F Reg Veh","Mobile caterer","7846","","","","","KT12","5","fhrs_5_en-gb","","03 May 2016","305","Elmbridge","http://www.elmbridge.gov.uk/food","envhealth@elmbridge.gov.uk","000","FHRS","false","",""
"525","1053845","18/00079/FOOD","Hooray's British Gelato Kitchen - Ice Cream Van","Mobile caterer","7846","","","","","CV37","5","fhrs_5_en-gb","","28 August 2018","320","Stratford-on-Avon","http://www.stratford.gov.uk","food@stratford-dc.gov.uk","050","FHRS","false","",""
"526","863704","4402","Ice Cream & Burger Kiosk","Mobile caterer","7846","Clarach Bay Caravan Park","","Clarach","Ceredigion","SY23 3DT","5","fhrs_5_en-gb","","17 April 2019","557","Ceredigion","http://www.ceredigion.gov.uk/","envhealth@ceredigion.gov.uk","505","FHRS","false","-4.06711852.4364471",""
"527","640658","12/00820/FOOD","Ice Cream Time  -  VAN NO. DG10 AKU","Mobile caterer","7846","Mobile Units","Western Gateway","Canning Town","London","","5","fhrs_5_en-gb","","21 May 2019","525","Newham","https://www.newham.gov.uk","food@newham.gov.uk","555","FHRS","false","",""
"528","358063","00000/0001/9/341","Ice Cream Van  - R860 CMB - Superman","Mobile caterer","7846","","","","","BR1 ","5","fhrs_5_en-gb","","15 February 2007","505","Bromley","http://www.bromley.gov.uk","food@bromley.gov.uk","555","FHRS","false","",""
"529","1135525","19/00051/COMM","Jimmy's Ices - Ice Cream Van W857 EOB","Mobile caterer","7846","","","","","M46 ","5","fhrs_5_en-gb","","14 May 2019","197","Chorley","http://www.chorley.gov.uk/foodratings","contact@chorley.gov.uk","555","FHRS","false","",""
"530","778347","148763","Louise's Ice Cream & Donuts","Mobile caterer","7846","","","","","YO15","5","fhrs_5_en-gb","","04 June 2015","863","East Riding of Yorkshire","http://www.eastriding.gov.uk","food.services@eastriding.gov.uk","555","FHRS","false","",""
"531","977759","PI/000096006","Mantio Ice Cream (R166AKL & DK08YFP)","Mobile caterer","7846","","","","","KT12","5","fhrs_5_en-gb","","28 May 2019","305","Elmbridge","http://www.elmbridge.gov.uk/food","envhealth@elmbridge.gov.uk","000","FHRS","false","",""
"532","876655","AM/3","Mavis and Mikes Ice Cream Trike","Mobile caterer","7846","","","","","BN18","5","fhrs_5_en-gb","","15 August 2018","327","Horsham","http://www.horsham.gov.uk","publichealth.licensing@horsham.gov.uk","000","FHRS","false","",""
"533","1137658","PI/500012565","Mobile- C J Ice Cream Ltd (BV16 GJG)","Mobile caterer","7846","3 Greetby Place","Gillibrands","Skelmersdale","","WN8 9UL","5","fhrs_5_en-gb","","03 October 2017","206","West Lancashire","http://www.westlancs.gov.uk","EnvHealth.Admin@westlancs.gov.uk","005","FHRS","false","-2.78169753.5438423",""
"534","1137656","PI/500012326","Mobile- C J Ice Cream Ltd (PO61 UAJ)","Mobile caterer","7846","","","","","WN8 ","5","fhrs_5_en-gb","","26 June 2017","206","West Lancashire","http://www.westlancs.gov.uk","EnvHealth.Admin@westlancs.gov.uk","555","FHRS","false","",""
"535","1137657","PI/500012331","Mobile- C J Ice Cream Ltd (YA10 HYC)","Mobile caterer","7846","","","","","WN8 ","5","fhrs_5_en-gb","","05 July 2017","206","West Lancashire","http://www.westlancs.gov.uk","EnvHealth.Admin@westlancs.gov.uk","555","FHRS","false","",""
"536","948502","600556","Mr Softee Ice Cream and Donuts","Mobile caterer","7846","","","","","BT44","5","fhrs_5_en-gb","","20 February 2017","804","Mid and East Antrim","http://www.midandeastantrim.gov.uk","ballymena.envhealth@midandeastantrim.gov.uk","000","FHRS","false","",""
"537","1149607","19/00095/FOOD","Rays Ice Cream (T/at McArthur Glen Outlet Village)","Mobile caterer","7846","Office","Great Western Outlet Village","1 - 144 Kemble Drive","Rodbourne","SN2 2DY","5","fhrs_5_en-gb","","09 July 2019","881","Swindon","http://www.swindon.gov.uk/","foodhealth&safety@swindon.gov.uk","505","FHRS","false","-1.7974914351.5624428",""
"538","1061738","250447","Ripple and Roll Ice Cream Ltd","Mobile caterer","7846","","George White Street","City Centre","Bristol","","5","fhrs_5_en-gb","","20 August 2018","855","Bristol","http://www.bristol.gov.uk","food.safety@bristol.gov.uk","550","FHRS","false","-2.5775251.4610863",""
"539","924357","16/00367/FOOD","Rossis Of London West Ham Park Ice Cream Van","Mobile caterer","7846","Parks And Gardens Division Office","West Ham Park","Ham Park Road","Stratford","E15 3QJ","5","fhrs_5_en-gb","","12 October 2016","525","Newham","https://www.newham.gov.uk","food@newham.gov.uk","505","FHRS","false","0.01352151.537",""
"540","976473","1182","Sandford Takeaway & Ice Cream Kiosk","Mobile caterer","7846","Sandford Holiday Park Organford Road","","Holton Heath","Dorset","BH16 6JZ","5","fhrs_5_en-gb","","18 May 2018","085","Dorset","https://www.dorsetcouncil.gov.uk/","envhealthteamb@dorsetcouncil.gov.uk","000","FHRS","false","-2.08601550.72005",""
"541","1065335","65650","The Ice Cream Lady N808 S W O","Mobile caterer","7846","","","","","","5","fhrs_5_en-gb","","25 July 2018","293","Staffordshire Moorlands","http://www.staffsmoorlands.gov.uk","EnvHealth@highpeak.gcsx.gov.uk","000","FHRS","false","",""
"542","811418","157683","Vanilla Soft Ice Cream & Slush","Mobile caterer","7846","","","","","SA5 ","5","fhrs_5_en-gb","","07 February 2019","568","Swansea","http://www.swansea.gov.uk","FoodandSafety@swansea.gov.uk","000","FHRS","false","",""
"543","737683","41455","William Nelson Ice Cream ( Mr W Nelson Jnr)","Mobile caterer","7846","18 Richmond Industrial Estate","Ranger Road","Accrington","","BB5 0RJ","5","fhrs_5_en-gb","","02 February 2018","199","Hyndburn","http://www.hyndburnbc.gov.uk","enquiries@hyndburnbc.gov.uk","000","FHRS","false","-2.3722188553.7515564",""
"544","913627","R068SSCRIC/2","Jimbob & Matty's Ice Cream Ltd","Mobile caterer","7846","Mount Ballan Manor","Crick Road","Crick","Caldicot","NP26 5XP","4","fhrs_4_en-gb","","26 August 2018","562","Monmouthshire","http://www.monmouthshire.gov.uk","environmentalhealth@monmouthshire.gov.uk","5510","FHRS","false","-2.73580451.5991058",""
"545","1132308","PI/000169877","Wilma's Ice Cream Cafe","Mobile caterer","7846","","","","","BN27","4","fhrs_4_en-gb","","15 May 2019","107","Wealden","http://www.wealden.gov.uk","envhealth@rother.gov.uk","5105","FHRS","false","",""
"546","1155456","771044","Daisy & Belle Ice Cream","Mobile caterer","7846","","","","","CF11","AwaitingInspection","fhrs_awaitinginspection_en-gb","","N/A","556","Cardiff","https://www.srs.wales/en/Environmental-Health/Food-Hygiene-Standards/Food.aspx","FoodSafetyCardiff-SRSWales@valeofglamorgan.gov.uk","","FHRS","false","",""
"547","1137659","PI/500013078","Mobile- C J Ice Cream Ltd (DK67 LUH)","Mobile caterer","7846","3 Greetby Place","Gillibrands","Skelmersdale","","WN8 9UL","AwaitingInspection","fhrs_awaitinginspection_en-gb","","N/A","206","West Lancashire","http://www.westlancs.gov.uk","EnvHealth.Admin@westlancs.gov.uk","","FHRS","false","-2.78169753.5438423",""
"548","1019046","17/00171/FOOD","Cafe On The Go Ice Cream Trailer","Mobile caterer","7846","","","","","CV37","5","fhrs_5_en-gb","","25 March 2019","320","Stratford-on-Avon","http://www.stratford.gov.uk","food@stratford-dc.gov.uk","050","FHRS","false","",""
"549","1113194","67898","Claires Ice Cream ( Bd02 Dwa) (Structure And Documentation Only)","Mobile caterer","7846","","","","","ST11","5","fhrs_5_en-gb","","28 March 2019","293","Staffordshire Moorlands","http://www.staffsmoorlands.gov.uk","EnvHealth@highpeak.gcsx.gov.uk","000","FHRS","false","",""
"550","989491","17/00136/CP","ESQ Events Ltd (Mobile Ice Cream & Bar Trailer)","Mobile caterer","7846","","","","","PO41","5","fhrs_5_en-gb","","27 October 2017","867","Isle of Wight","http://www.iwight.com/eh","eh@iow.gov.uk","000","FHRS","false","",""
"551","897081","16/00124/COMM","Frew And Company Artisan Ice Cream Ltd","Mobile caterer","7846","","","","","NW2 ","5","fhrs_5_en-gb","","30 October 2018","502","Barnet","http://www.barnet.gov.uk/","FoodSafety@barnet.gov.uk","000","FHRS","false","",""
"552","1041072","18/00043/MIXED","Ice Cream Vans: W692 EOK And J338 VAX","Mobile caterer","7846","","","","","HP13","5","fhrs_5_en-gb","","18 June 2018","025","Wycombe","http://www.wycombe.gov.uk","Food.Ratings@wycombe.gov.uk","555","FHRS","false","",""
"553","658823","302580","Kings Cafe - Mobile Ice Cream Van","Mobile caterer","7846","","","","","DH9 ","5","fhrs_5_en-gb","","17 April 2018","706","Durham","http://www.durham.gov.uk","ehcp@durham.gov.uk","000","FHRS","false","",""
"554","337875","PI/000041519","Lea Valley Ice Cream & Catering Ltd","Mobile caterer","7846","","","","","SG12","5","fhrs_5_en-gb","","09 August 2016","157","East Hertfordshire","http://www.eastherts.gov.uk","environmental.health@eastherts.gov.uk","000","FHRS","false","",""
"555","950478","67610","Raffaelles Ice Cream and Coffee Espresso Ltd","Mobile caterer","7846","","","","","PR8 ","5","fhrs_5_en-gb","","24 March 2017","424","Sefton","http://www.sefton.gov.uk/","ETSContact@sefton.gov.uk","055","FHRS","false","",""
"556","975476","60730","Mr Bridger's Bubbles & Mrs B's Luxury Ice Cream","Mobile caterer","7846","","","","","","AwaitingInspection","fhrs_awaitinginspection_en-gb","","N/A","288","East Staffordshire","http://www.eaststaffsbc.gov.uk","foodteam@eaststaffsbc.gov.uk","","FHRS","false","",""
"557","1106612","PI/000095640","Ashford Ice Creams","Mobile caterer","7846","","","","","TN23","5","fhrs_5_en-gb","","07 June 2019","179","Ashford","http://www.ashford.gov.uk","envhealth@ashford.gov.uk","005","FHRS","false","",""
"558","559288","13/00083/FOODPR","Carmel's Ice Creams","Mobile caterer","7846","Unit 9","Abbots Farm","Sulhamstead Abbots","Sulhamstead","RG7 4EE","5","fhrs_5_en-gb","","29 May 2013","883","West Berkshire","http://www.westberks.gov.uk","EHAdvice@westberks.gov.uk","055","FHRS","false","-1.06662751.4045029",""
"559","1126032","A21KCD21AL/1","Cone Ed's Ice Creams","Mobile caterer","7846","Honeycroft","21 All Saints Lane","Clevedon","North Somerset","BS21 6AX","5","fhrs_5_en-gb","","14 July 2017","858","North Somerset","http://www.n-somerset.gov.uk","foodandsafety@n-somerset.gov.uk","555","FHRS","false","-2.8396213151.44175",""
"560","989125","EHFDI/04748/17","Dan'S Ice Creams","Mobile caterer","7846","Flat 4","25 Rutland Road","Skegness Lincolnshire","","PE25 2AY","5","fhrs_5_en-gb","","12 July 2017","220","East Lindsey","http://www.e-lindsey.gov.uk/","customerservices@e-lindsey.gov.uk","555","FHRS","false","0.34191353.144",""
"561","386965","6426","Ella Bella Ice Creams","Mobile caterer","7846","","","","","ST15","5","fhrs_5_en-gb","","11 September 2018","292","Stafford","http://www.staffordbc.gov.uk","ehtechsupport@staffordbc.gov.uk","055","FHRS","false","",""
"562","468223","29639","Em-Ben Ice Creams","Mobile caterer","7846","","","","","BA22","5","fhrs_5_en-gb","","19 June 2017","283","South Somerset","http://www.southsomerset.gov.uk/food","food.safety@southsomerset.gov.uk","005","FHRS","false","",""
"563","796406","PI/100047195","Emmas Ice Creams","Mobile caterer","7846","Emmas Ice Creams","Birkenhead","Wirral","","CH41 3SE","5","fhrs_5_en-gb","","25 January 2018","435","Wirral","http://www.wirral.gov.uk","environmentalhealth@wirral.gov.uk","000","FHRS","false","-3.02901653.397068",""
"564","994399","954","Fiffi's Ice Creams","Mobile caterer","7846","","","","","DT10","5","fhrs_5_en-gb","","04 August 2016","085","Dorset","https://www.dorsetcouncil.gov.uk/","envhealthteamb@dorsetcouncil.gov.uk","000","FHRS","false","",""
"565","767440","15/00033/MOBILE","Gary Ice Creams","Mobile caterer","7846","","","","","CM15","5","fhrs_5_en-gb","","24 April 2017","111","Brentwood","http://www.brentwood.gov.uk/","envhealth@brentwood.gov.uk","000","FHRS","false","",""
"566","240956","PI/000208144","Glen Ford Ice Creams","Mobile caterer","7846","","","","","CV6 ","5","fhrs_5_en-gb","","12 March 2015","407","Coventry","http://www.coventry.gov.uk","ehcommercial@coventry.gov.uk","005","FHRS","false","",""
"567","949883","PI/000164397","Indulgent Ice Creams","Mobile caterer","7846","Halland Park Farm","Eastbourne Road","Halland","East Sussex","BN8 6RB","5","fhrs_5_en-gb","","17 May 2019","107","Wealden","http://www.wealden.gov.uk","envhealth@rother.gov.uk","555","FHRS","false","0.14899450.92329",""
"568","1136033","PI/000245526","Mr Whippy Ice Creams","Mobile caterer","7846","","","","","B11 ","5","fhrs_5_en-gb","","09 May 2019","402","Birmingham","http://www.birmingham.gov.uk/environmental-health","nick.lowe@birmingham.gov.uk","555","FHRS","false","",""
"569","965357","17/00003/COMM","NV Ice Creams","Mobile caterer","7846","","","","","EN5 ","5","fhrs_5_en-gb","","07 March 2017","502","Barnet","http://www.barnet.gov.uk/","FoodSafety@barnet.gov.uk","555","FHRS","false","",""
"570","447843","1996/1946","Silv's Ice Creams","Mobile caterer","7846","","","","","NG3 ","5","fhrs_5_en-gb","","28 September 2017","262","Gedling","http://www.gedling.gov.uk/","foodsafety@gedling.gov.uk","000","FHRS","false","",""
"571","551060","13/00344/FOOD","Softee Ice Creams","Mobile caterer","7846","85 Totteridge Drive","High Wycombe","Buckinghamshire","","HP13 6UQ","5","fhrs_5_en-gb","","09 March 2019","025","Wycombe","http://www.wycombe.gov.uk","Food.Ratings@wycombe.gov.uk","555","FHRS","false","-0.72913851.6378975",""
"572","952210","23462","Stilton Ice Creams","Mobile caterer","7846","Long Acre","53 High Street","Stilton","Peterborough","PE7 3RA","5","fhrs_5_en-gb","","05 April 2017","030","Huntingdonshire","http://www.huntingdonshire.gov.uk","food@huntingdonshire.gov.uk","000","FHRS","false","-0.28835752.4880562",""
"573","863893","7598","Teifi Ice Creams","Mobile caterer","7846","Llwyn Helig 3 Glasdir","","Penparc","Ceredigion","SA43 1SE","5","fhrs_5_en-gb","","23 August 2013","557","Ceredigion","http://www.ceredigion.gov.uk/","envhealth@ceredigion.gov.uk","555","FHRS","false","-4.61282652.1013222",""
"574","967698","713088","TLJ's Ice Creams","Mobile caterer","7846","","","","","CF31","5","fhrs_5_en-gb","","30 November 2017","553","Bridgend","http://www.bridgend.gov.uk/","publicprotection@bridgend.gov.uk","000","FHRS","false","",""
"575","971477","PI/000080923","Tonys Ice Creams","Mobile caterer","7846","","","","","BA11","5","fhrs_5_en-gb","","23 March 2017","281","Mendip","http://www.mendip.gov.uk","env-health@mendip.gov.uk","000","FHRS","false","",""
"576","179058","PI/000051915","Sergio's Ice Creams","Mobile caterer","7846","","","","","NN4 ","4","fhrs_4_en-gb","","04 June 2009","239","Northampton","http://www.northampton.gov.uk","ehfs@northampton.gov.uk","5510","FHRS","false","",""
"577","253763","C24HSN316C/2","Summer Time Ice Creams","Mobile caterer","7846","","","","","SN2 ","4","fhrs_4_en-gb","","10 August 2016","881","Swindon","http://www.swindon.gov.uk/","foodhealth&safety@swindon.gov.uk","5510","FHRS","false","",""
"578","979014","CP4242","Super Scoops Ice Creams","Mobile caterer","7846","139A Cainscross Road","Stroud","Gloucestershire","","GL5 4HP","4","fhrs_4_en-gb","","03 August 2017","128","Stroud","http://www.stroud.gov.uk","environmental.health@stroud.gov.uk","5105","FHRS","false","-2.23448851.7446823",""
"579","1111778","PI/000219082","Shrek Ice Creams","Mobile caterer","7846","","","","","BA14","Exempt","fhrs_exempt_en-gb","","N/A","709","Wiltshire","http://www.wiltshire.gov.uk","publicprotectioneast@wiltshire.gov.uk","","FHRS","false","",""
"580","1055991","PI/000185776","Simon Haldane ice creams","Mobile caterer","7846","","","","","BA14","Exempt","fhrs_exempt_en-gb","","N/A","709","Wiltshire","http://www.wiltshire.gov.uk","publicprotectioneast@wiltshire.gov.uk","","FHRS","false","",""
"581","85766","217143","Cobbles Ices Heritage Collection (Scoop Ice Cream)","Mobile caterer","7846","","Batter Street","Plymouth","","PL4 0EF","5","fhrs_5_en-gb","","24 September 2018","891","Plymouth City","http://www.plymouth.gov.uk","public.protection@plymouth.gov.uk","550","FHRS","false","-4.13637950.36867",""
"582","1153323","19/0132","Adam Fenn (Mr Scoopy Doo Ice Cream)","Mobile caterer","7846","","","","","PE31","AwaitingInspection","fhrs_awaitinginspection_en-gb","","N/A","230","King's Lynn and West Norfolk","http://www.west-norfolk.gov.uk/","foodhygieneandsafety@west-norfolk.gov.uk","","FHRS","false","",""
"583","853164","1502352","Daves Ice Creams Ltd","Mobile caterer","7846","","","","","M40 ","5","fhrs_5_en-gb","","30 May 2019","415","Manchester","http://www.manchester.gov.uk","envhealth@manchester.gov.uk","555","FHRS","false","",""
"584","33783","10/00066/FH","Emmas Ice Creams (MERCEDES SPRINTER-SL11USH)","Mobile caterer","7846","296A Nottingham Road Ripley Derbyshire","","","","DE5 3JX","5","fhrs_5_en-gb","","17 May 2017","062","Amber Valley","http://www.ambervalley.gov.uk","envhealth@ambervalley.gov.uk","000","FHRS","false","-1.38362753.04738",""
"585","163598","PI/000004968","P.W.W. Ice Creams Ltd","Mobile caterer","7846","17 Bulverhythe Road","St Leonards-on-sea","East Sussex","","TN38 8AA","5","fhrs_5_en-gb","","25 September 2018","103","Hastings","http://www.hastings.gov.uk","fhrs@hastings.gov.uk","555","FHRS","false","0.53072550.8506927",""
"586","239198","PI/000091938","Steves Ice Creams (L2 KSK)","Mobile caterer","7846","","","","","CV6 ","5","fhrs_5_en-gb","","25 April 2017","407","Coventry","http://www.coventry.gov.uk","ehcommercial@coventry.gov.uk","555","FHRS","false","",""
"587","1127581","3188","Trent Bridge Kiosk Ice Creams","Mobile caterer","7846","","","","","NG15","5","fhrs_5_en-gb","","10 April 2019","262","Gedling","http://www.gedling.gov.uk/","foodsafety@gedling.gov.uk","000","FHRS","false","",""
"588","1071842","PI/000087270","Welsh Ice Creams (CP52 RVC)","Mobile caterer","7846","","","","","HR3 ","5","fhrs_5_en-gb","","16 August 2018","566","Powys","http://www.powys.gov.uk","public.protection@powys.gov.uk","000","FHRS","false","",""
"589","1071850","PI/000100844","Welsh Ice Creams (YHO5 WBM)","Mobile caterer","7846","","","","","HR3 ","5","fhrs_5_en-gb","","16 August 2018","566","Powys","http://www.powys.gov.uk","public.protection@powys.gov.uk","000","FHRS","false","",""
"590","658330","86276","Sean Morrison - Ice Creams","Mobile caterer","7846","","","","","BH23","4","fhrs_4_en-gb","","23 August 2017","872","Bournemouth, Christchurch and Poole","http://www.bournemouth.gov.uk","foodandhealthandsafety@bournemouth.gov.uk","5510","FHRS","false","",""
"591","1039324","PI/000042309","Worthing Ice Creams Ltd","Mobile caterer","7846","","","","","BN13","4","fhrs_4_en-gb","","13 March 2018","329","Worthing","http://www.adur-worthing.gov.uk","publichealth.regulation@adur-worthing.gov.uk","0010","FHRS","false","",""
"592","904500","126008","Del Duca Ice Creams  FA08 NMO","Mobile caterer","7846","Unit 3 Trentside Industrial Park","Second Avenue","Flixborough","Scunthorpe","DN15 8SD","5","fhrs_5_en-gb","","20 June 2016","864","North Lincolnshire","http://www.northlincs.gov.uk/environment/environmentalhealth/food/food-safety/","food.safety@northlincs.gov.uk","050","FHRS","false","-0.70245153.6221428",""
"593","904501","126016","Del Duca Ice Creams  Y283 AOE","Mobile caterer","7846","","","","","DN17","5","fhrs_5_en-gb","","20 June 2016","864","North Lincolnshire","http://www.northlincs.gov.uk/environment/environmentalhealth/food/food-safety/","food.safety@northlincs.gov.uk","050","FHRS","false","",""
"594","975432","0000148/FH","Jens  Ice Creams (FORD TRANSIT- F14JEN)","Mobile caterer","7846","296A Nottingham Road Ripley Derbyshire","","","","DE5 3JX","5","fhrs_5_en-gb","","17 May 2017","062","Amber Valley","http://www.ambervalley.gov.uk","envhealth@ambervalley.gov.uk","000","FHRS","false","-1.38362753.04738",""
"595","1009484","62510","Mr Khan Ice Creams (Sa06 Jad)","Mobile caterer","7846","","","","","WS2 ","5","fhrs_5_en-gb","","07 October 2017","287","Cannock Chase","http://www.cannockchasedc.gov.uk","environmentalhealth@cannockchasedc.gov.uk","000","FHRS","false","",""
"596","990846","127753","Del Duca Ice Creams - Van KG02 WWA","Mobile caterer","7846","","","","","DN17","5","fhrs_5_en-gb","","01 August 2017","864","North Lincolnshire","http://www.northlincs.gov.uk/environment/environmentalhealth/food/food-safety/","food.safety@northlincs.gov.uk","555","FHRS","false","",""
"597","966888","754399","C & P Supper Ice Creams","Mobile caterer","7846","8 Courtenay Road","","Barry","Vale Of Glamorgan","CF63 3QG","4","fhrs_4_en-gb","","06 August 2014","570","Vale of Glamorgan","http://www.valeofglamorgan.gov.uk","foodsafetyteam@valeofglamorgan.gov.uk","1055","FHRS","false","-3.25398151.41064",""
"598","966887","754398","C and P Supper Ice Creams","Mobile caterer","7846","41 North Walk","","Barry","Vale Of Glamorgan","CF62 8BW","3","fhrs_3_en-gb","","06 August 2014","570","Vale of Glamorgan","http://www.valeofglamorgan.gov.uk","foodsafetyteam@valeofglamorgan.gov.uk","10510","FHRS","false","-3.28192451.41083",""
